region,center,name,program,adultped,rural,level,city,district,province,country,geocode_lat,geocode_lon,open_d,close_d,add_center,drop_center,notes
AP,1,Dr Ellis GMP,AHOD,ADULT,2,1,Coffs Harbour,Mid North Coast - NSW,New South Wales,AUS,-30.29701,153.115158,1985-06-15,2015-04-15,1999-07-01,,
AP,2,Holdsworth House Medical Practice,AHOD,ADULT,1,1,Darlinghurst,Sydney - NSW,New South Wales,AUS,-33.869629,151.206955,1980-01-01,2015-04-15,1999-07-01,,
AP,3,Northside Clinic,AHOD,ADULT,1,1,Fitzroy North,Northern and Western Metropolitan - VIC,Victoria,AUS,-37.783691,144.983505,1980-10-07,2015-04-15,1999-07-01,,
AP,4,"Dept Clin Immunol, Royal Perth Hospital",AHOD,ADULT,1,3,Perth,Metropolitan - WA,Western Australia,AUS,-31.95302,115.857239,1982-06-15,2015-04-15,1999-07-01,,
AP,5,Prahran Market Clinic,AHOD,ADULT,1,1,Prahan,Northern and Western Metropolitan - VIC,Victoria,AUS,-31.934566,136.099915,1982-01-01,2015-04-15,1999-07-01,,
AP,6,Holden Street Clinic,AHOD,ADULT,2,1,Gosford,Central Coast - NSW,New South Wales,AUS,-33.42321,151.342606,1983-09-01,2015-04-15,1999-07-01,,
AP,7,SHAIDS (Lismore Sexual Health Service),AHOD,ADULT,3,1,Lismore,Northern NSW,New South Wales,AUS,-28.814011,153.278244,1978-01-01,2015-04-15,1999-07-01,,
AP,8,East Sydney Doctors,AHOD,ADULT,1,1,Darlinghurst,Sydney - NSW,New South Wales,AUS,-33.879162,151.220184,1982-07-01,2015-04-15,1999-07-01,,
AP,9,"Sexual Health Program, Cairns Base Hospital",AHOD,ADULT,2,1,Cairns,Cairns and Hinterland,Queensland,AUS,-16.92646,145.77597,1982-01-01,2015-04-15,1999-07-01,,
AP,10,RPA Sexual Health,AHOD,ADULT,1,1,Camperdown,Sydney - NSW,New South Wales,AUS,-33.888649,151.181595,1982-01-01,2015-04-15,1999-07-01,,
AP,11,Clinic 87 - Sunshine Coast - Wide Bay Sexual Health & HIV Service,AHOD,ADULT,3,1,Nambour,Sunshine Coast - QLD,Queensland,AUS,-26.60936,152.972153,1983-01-01,2015-04-15,2000-01-01,,
AP,12,Gladstone Road Medical Centre ,AHOD,ADULT,3,1,Highgate Hill,Sunshine Coast - QLD,Queensland,AUS,-27.487181,153.017548,1983-06-01,2015-04-15,2000-01-01,,
AP,13,Blue Mountains Sexual Health Clinic,AHOD,ADULT,3,1,Katoomba,Nepean Blue Mountains,New South Wales,AUS,-33.711819,150.310532,1983-07-01,2015-04-15,2000-01-01,,
AP,14,Melbourne Sexual Health Clinic,AHOD,ADULT,1,1,Melbourne,Northern and Western Metropolitan - VIC,Victoria,AUS,-37.801041,144.969482,1982-01-01,2015-04-15,2000-01-01,,
AP,15,Clinic 34,AHOD,ADULT,3,1,Darwin,Darwin,Northern Territory,AUS,-12.4675,130.843155,1985-10-01,2015-04-15,2000-01-01,,
AP,16,The Alfred Hospital,AHOD,ADULT,1,3,Melbourne,Northern and Western Metropolitan - VIC,Victoria,AUS,-37.851341,144.993423,1965-05-19,2015-04-15,2000-01-01,,
AP,17,Tamworth Sexual Health Service,AHOD,ADULT,3,1,Tamworth,Hunter New England,New South Wales,AUS,-31.090639,150.928528,1986-03-01,2015-04-15,2000-01-01,,
AP,18,St. Vincent's Hospital,AHOD,ADULT,1,3,Darlinghurst,Sydney - NSW,New South Wales,AUS,-33.879162,151.220184,1958-12-15,2015-04-15,2000-01-01,,
AP,19,Taylor Square Private Clinic,AHOD,ADULT,1,1,Darlinghurst,Sydney - NSW,New South Wales,AUS,-33.879162,151.220184,1983-06-15,2015-04-15,2000-01-01,,
AP,20,Nepean Sexual Health Clinic,AHOD,ADULT,2,1,Kingswood,Nepean Blue Mountains,New South Wales,AUS,-33.76347,150.719696,1985-01-01,2015-04-15,2001-01-01,,
AP,21,Brisbane Sexual Health & HIV Service,AHOD,ADULT,1,1,Brisbane,Metro North - QLD,Queensland,AUS,-27.46888,153.022827,1983-06-15,2015-04-15,2001-01-01,,
AP,22,Illawarra Sexual Health Clinic,AHOD,ADULT,2,1,Warrawong,Illawarra Shoalhaven,New South Wales,AUS,-34.484859,150.887558,1979-01-01,2015-04-15,2001-01-01,,
AP,23,Sydney Sexual Health Clinic,AHOD,ADULT,1,1,Sydney,South Eastern Sydney,New South Wales,AUS,-33.869629,151.206955,1982-03-15,2015-04-15,2002-01-01,,
AP,24,O'Brien Street Practice,AHOD,ADULT,1,1,Adelaide,Adelaide,South Australia,AUS,-34.926102,138.599884,1985-06-15,2015-04-15,2002-01-01,,
AP,25,Monash Medical Centre,AHOD,ADULT,1,1,Clayton,Eastern Metropolitan - VIC,Victoria,AUS,-37.925491,145.119659,1984-01-01,2015-04-15,2003-01-01,,
AP,26,"Beijing Ditan Hospital, Capital Medical University",TAHOD,ADULT,1,3,Beijing,Chaoyang district,Beijing,CHN,40.023361,116.525979,,2015-03-31,2004-07-15,,
AP,27,Queen Elizabeth Hospital,TAHOD,ADULT,1,3,Hong Kong,,Kowloon,CHN,22.309201,114.174762,1985-06-01,2015-03-31,2004-07-15,,
AP,28,Taipei Veterans General Hospital,TAHOD,ADULT,1,3,Taipei,Beitou district,Taipei,TWN,25.120184,121.52016,1988-07-01,2015-03-31,2004-07-15,,
AP,29,Yonsei University College of Medicine,TAHOD,ADULT,1,3,Seoul,Seodaemun-gu,Seoul,KOR,37.561985,126.939546,1989-07-01,2015-03-31,2007-07-15,,
AP,30,"YRG Centre for AIDS Research and Education, VHS",TAHOD,ADULT,1,1,Chennai,Taramani,Chennai,IND,13.002033,80.246243,1993-07-01,2015-03-31,2004-07-01,,
AP,31,Institute of Infectious Diseases,TAHOD,ADULT,1,1,Pune,Mukund Nagar,Pune,IND,18.494465,73.863959,1993-07-01,2015-03-31,2004-07-01,,
AP,32,Sungai Buloh Hospital,TAHOD,ADULT,2,3,Sungai Buloh,,Sungai Buloh,MYS,3.219826,101.584987,1992-07-01,2015-03-31,2004-07-01,,
AP,33,University of Malaya ,TAHOD,ADULT,1,3,Kuala Lumpur,,Kuala Lumpur,MYS,3.113401,101.652679,,2015-03-31,2004-07-01,,
AP,34,Research Institute for Tropical Medicine,TAHOD,ADULT,1,3,Manila,Muntinlupa City,Metro Manila,PHL,14.409827,121.037071,1984-05-15,2015-03-31,2004-07-01,,
AP,35,Tan Tock Seng Hospital,TAHOD,ADULT,1,3,Singapore,,Singapore,SGP,1.321329,103.845584,1988-08-29,2015-03-31,2004-07-01,,
AP,36,HIV-NAT/Thai Red Cross AIDS Research Center,TAHOD,ADULT,1,1,Bangkok,Pathumwan,Bangkok,THA,13.734784,100.538302,1983-07-01,2015-03-31,2004-07-15,,
AP,37,"Ramathibodi Hospital, Mahidol University",TAHOD,ADULT,1,3,Bangkok,Ratchatewi,Bangkok,THA,13.766647,100.526334,1991-07-01,2015-03-31,2004-07-01,,
AP,38,Chiang Mai University-Research Institute for Health Sciences ,TAHOD,ADULT,1,3,Chiang Mai,Muang,Chiang Mai,THA,18.795458,98.95819,1987-07-01,2015-03-31,2005-07-01,,
AP,39,Udayana University School of Medicine,TAHOD,ADULT,1,3,Bali,Denpasar,Bali,IDN,-8.6683339,115.2155142,1992-11-10,2015-03-31,2004-07-15,,
AP,40,PG-Port Moresby General Hospital,TAHOD,ADULT,,,Port Moresby,,,PNG,-9.47959,147.188522,,,,,
AP,41,Cipto Mangunkusumo General Hospital,TAHOD,ADULT,1,3,Jakarta,Jakarta Pusat,DKI Jakarta,IDN,-6.196815,106.846882,1972-07-01,2015-03-31,2009-07-01,,
AP,42,National Center for Global Health and Medicine (NCGM),TAHOD,ADULT,1,3,Tokyo,Shinjuku-ku,Tokyo,JPN,35.70159,139.716327,,2015-03-31,2004-07-01,,
AP,43,"National Center for HIV/AIDS, Dermatology and STDS/Cambodia National Institute of Public Health",TAHOD,ADULT,1,3,Phnom Penh,Khan Russey Keo,Phnom Penh,KHM,11.621586,104.923538,1993-06-15,2015-03-31,2005-07-15,,
AP,44,National Hospital of Tropical Diseases ,TAHOD,ADULT,1,3,Hanoi,Dong Da district,Hanoi,VNM,21.002197,105.838754,1997-06-15,2015-03-31,2011-07-15,,
AP,45,Bach Mai Hospital,TAHOD,ADULT,1,3,Hanoi,Dong Da district,Hanoi,VNM,21.001094,105.840923,1998-07-01,2015-03-31,2011-07-01,,
AP,46,Integrated Treatment Centre,TASER,ADULT,1,1,Hong Kong,,Kowloon,CHN,22.3581,114.138443,,2011-09-30,2006-07-01,,
AP,47,Queen Elizabeth Hospital,TASER,ADULT,1,3,Hong Kong,,Kowloon,CHN,22.3581,114.138443,,2015-03-31,2006-07-15,,
AP,48,Hospital Sungai Buloh,TASER,ADULT,2,3,Sungai Buloh,,Sungai Buloh,MYS,3.23234,101.377628,,2011-09-30,2006-07-01,,
AP,49,University of Malaya Medical Centre,TASER,ADULT,1,3,Kuala Lumpur,,Kuala Lumpur,MYS,3.104665,101.69117,,2011-09-30,2006-07-01,,
AP,50,Hospital Raja Perempuan Zainab II,TASER,ADULT,1,3,Kota Bharu,,Kota Bharu,MYS,6.13532,102.23702,,2011-09-30,2006-07-01,,
AP,51,"Research Institute for Tropical Medicine, ",TASER,ADULT,1,3,Manila,Muntinlupa City,Metro Manila,PHL,14.60962,121.00589,,2015-03-31,2006-07-01,,
AP,52,HIV-NAT Research Collaboration/Thai Red Cross AIDS Research Centre,TASER,ADULT,1,1,Bangkok,Pathumwan,Bangkok,THA,13.75333,100.504822,,2015-03-31,2006-07-01,,
AP,53,"Ramathibodi Hospital, Mahidol University",TASER,ADULT,1,3,Bangkok,Ratchatewi,Bangkok,THA,13.75333,100.504822,,2015-03-31,2006-07-01,,
AP,54,"Research Institute for Health Sciences, Chiang Mai University",TASER,ADULT,1,3,Chiang Mai,Muang,Chiang Mai,THA,16.239815,103.80914,,2015-03-31,2006-07-01,,
AP,55,Chiangrai Prachanukroh Hospital,TAHOD,ADULT,2,3,Chiang Rai,Muang,Chiang Rai,THA,19.901004,99.828979,1953-07-01,2015-03-31,2012-07-15,,
AP,56,"Siriraj Hospital, Mahidol University",TAHOD,ADULT,1,3,Bangkok,Bangkoknoi,Bangkok,THA,13.756594,100.484788,1988-04-03,,2013-07-15,,
AP,57,"Sanglah Hospital, Udayana University, Kerti Praja Foundation",TASER,ADULT,1,3,Bali,Denpasar,Bali,IDN,-8.45535,115.072063,,2015-03-31,2006-07-01,,
AP,58,"National Center for HIV/AIDS, Dermatology and STDS/Cambodia National Institute of Public Health",TApHOD,PED,2,3,Phnom Penh,Toul Kok,Phnom Penh city,KHM,11.621586,104.923538,2002-08-07,2014-11-09,2008-02-08,,
AP,59,Cipto Mangunkusumo General Hospital,TApHOD,PED,1,3,Jakarta,Jakarta Pusat,DKI-Jakarta,IDN,-6.196815,106.846882,1997-06-01,2015-01-15,2008-02-27,,
AP,60,Udayana University School of Medicine,TApHOD,PED,,,Bali,,,IDN,-8.6683339,115.2155142,,,,,
AP,61,"YR Gaitonde Centre for AIDS Research and Education, VHS",TApHOD,PED,3,1,Chennai,Chennai,NA,IND,13.002033,80.246243,1992-06-15,2014-10-07,2008-04-09,,
AP,62,Penang Hospital,TApHOD,PED,1,3,Penang,North-East Penang Island,Pulau Pinang,MYS,5.4157,100.310645,1997-07-01,2015-01-08,2008-03-31,,
AP,63,Hospital Likas ,TApHOD,PED,4,3,Kota Kinabalu,Kota Kinabalu,Sabah,MYS,6.014063,116.119514,2001-12-04,2014-10-29,2008-01-31,,
AP,64,Hospital Raja Perempuan Zainab II,TApHOD,PED,2,3,Kota Bharu,Kota Bharu,Kelantan,MYS,6.123683,102.246868,2001-07-01,2014-11-25,2008-03-31,,
AP,65,"Pediatric Institute, Hospital Kuala Lumpur",TApHOD,PED,1,3,Kuala Lumpur,Kuala Lumpur,Kuala Lumpur,MYS,3.169085,101.702084,2000-08-26,2014-04-18,2008-03-31,,
AP,66,Chiang Mai University-Research Institute for Health Sciences ,TApHOD,PED,2,3,Chiang Mai,Muang Chiangmai,Chiangmai,THA,18.795458,98.95819,1994-02-14,2014-10-10,2008-02-05,,
AP,67,Chiangrai Prachanukroh Hospital,TApHOD,PED,2,3,Chiang Rai,Muang ,Chiangrai,THA,19.901004,99.828979,1999-05-12,2014-10-06,2008-02-13,,
AP,68,HIV-NAT/Thai Red Cross AIDS Research Center,TApHOD,PED,1,3,Bangkok,Pathumwan,Bangkok,THA,13.734784,100.538302,1995-06-15,2014-09-16,2007-11-22,,
AP,69,"Srinagarind Hospital, Khon Kaen University",TApHOD,PED,1,3,Khon Kaen,Muang,Khon Kaen,THA,16.465636,102.820041,1995-08-13,2014-10-10,2008-02-29,,
AP,70,"Siriraj Hospital, Mahidol University",TApHOD,PED,1,3,Bangkok,Bangkok Noi,Bangkok,THA,13.756594,100.484788,1995-02-02,2015-01-09,2007-12-07,,
AP,71,National Hospital of Pediatrics,TApHOD,PED,1,3,Hanoi,Ba Dinh,Hanoi,VNM,21.02463,105.808747,2004-04-22,2015-01-28,2009-10-09,,
AP,72,Children's Hospital No. 2,TApHOD,PED,1,3,Ho Chi Minh City,One,Ho Chi Minh,VNM,10.780534,106.704063,2002-07-15,2014-04-03,2010-12-13,,
AP,73,Children's Hospital No. 1,TApHOD,PED,1,1,Ho Chi Minh City,Ten,Ho Chi Minh ,VNM,10.769428,106.671375,2005-10-17,2014-03-29,2010-12-13,,
CA,BI-ANSS,ANSS,BI-ANSS,BOTH,1,3,Gihosha,North,Bujumbura,BDI,-3.362958,29.374928,2003-01-01,2016-04-27,2011-07-01,,
CA,BI-CHUK,CHUK CPAMP,BI-CHUK,BOTH,1,3,Gihosha,North,Bujumbura,BDI,-3.356655,29.38527,2003-01-01,2016-04-27,2011-07-01,,
CA,BI-HPRC,HPRC CPAMP,BI-HPRC,BOTH,1,3,Buyenzi,Center,Bujumbura,BDI,-3.372977,29.362054,2003-05-28,2016-04-27,2011-07-01,,
CA,Bomoi,Bomoi Healthcare Center,CO-BHC,BOTH,1,1,Kinshasa,Lukunga,Kinshasa,COD,-4.3240819,15.3101915,2006-11-20,2013-08-26,2011-07-01,2013-08-26,
CA,CA_CMR-GHY,Yaoundé General Hospital,CM-GHY,BOTH,1,3,Yaounde,Ngoussou,Centre,CMR,3.906571,11.541287,2008-01-14,2012-01-04,2011-07-01,,
CA,CM-MHY-Efoulan,Military Hospital of Yaoundé,CM-MHY,BOTH,1,3,Yaounde,Efoulan,Centre,CMR,3.853839,11.517429,2006-06-30,2011-06-22,2011-07-01,,
CA,CM-MHY-Limbe,Limbé Regional Hospital,CM-MHY,BOTH,1,3,Limbe,Limbe,South West,CMR,4.015548,9.146252,2007-07-02,2001-06-30,2011-07-01,,
CA,Kalembelembe,Kalembe Lembe Pediatric Hospital,CO-KLPH,PED,1,3,Kinshasa,Lukunga,Kinshasa,COD,-4.32464,15.302964,2004-11-30,2016-04-18,2011-07-01,,
CA,RW-BETHSAID,Bethsaid,RW-BETHSAID,BOTH,1,3,KIGALI,Kicukiro,KIGALI CITY,RWA,1.975787,30.102488,2004-01-01,2015-02-28,2011-07-01,,
CA,RW-BUSANZA,Busanza,RW-BUSANZA,BOTH,1,3,KIGALI,Kicukiro,KIGALI CITY,RWA,-1.984296,30.15338,2004-01-01,2015-02-28,2011-07-01,,
CA,RW-GAHANGA,Gahanga,RW-GAHANGA,BOTH,1,3,KIGALI,Kicukiro,KIGALI CITY,RWA,-2.027579,30.104191,2004-01-01,2005-02-28,2011-07-01,,
CA,RW-GIKONDO,Gikondo,RW-GIKONDO,BOTH,1,3,KIGALI,Kicukiro,KIGALI CITY,RWA,-1.970273,30.078494,2004-01-01,2014-02-28,2011-07-11,,
CA,RW-KABUGA,Kabuga,RW-KABUGA,BOTH,1,3,KIGALI,Kicukiro,KIGALI CITY,RWA,-1.980862,30.227868,2004-01-06,2015-02-28,2011-07-01,,
CA,RW-KANOMBE,Kanombe,RW-KANOMBE,BOTH,1,3,KIGALI,Kicukiro,KIGALI CITY,RWA,-1.97749,30.168879,2004-01-01,2015-02-28,2011-07-01,,
CA,RW-KICUKURI,Kicukuri,RW-KICUKURI,BOTH,1,3,KIGALI,Kicukiro,KIGALI CITY,RWA,-1.976964,30.114436,2004-01-01,2015-02-28,2011-07-01,,
CA,RW-MASAKA,Masaka,RW-MASAKA,BOTH,1,3,KIGALI,Kicukiro,KIGALI CITY,RWA,-1.995621,30.191351,2004-01-01,2015-02-28,2011-07-01,,
CA,RW-NYARUGUNGA,Nyarugunga,RW-NYARUGUNGA,BOTH,1,3,KIGALI,Kicukiro,KIGALI CITY,RWA,-1.972643,30.16087,2013-09-04,2015-02-28,2011-07-01,,
CA,RW-WE-ACTX,WE-ACTx,RW-WE-ACTX,BOTH,1,3,KIGALI,Nyarugenge,KIGALI CITY,RWA,-1.949531,30.058288,2004-01-01,2013-12-09,2011-07-01,2013-12-09,
CN,ar-hf,Hospital Fernandez,Fundacion Huesped,BOTH,1,3,Buenos Aires,,Autonomous City of Buenos Aires,ARG,-34.58139,-58.406946,1994-11-03,2016-05-01,2006-06-01,,
CN,ar-ss,Centro Medico Huesped,Fundacion Huesped,ADULT,1,3,Buenos Aires,,Autonomous City of Buenos Aires,ARG,-34.610383,-58.421858,1988-10-01,2013-12-13,2006-06-01,,
CN,br-iff,Instituto Fernandes Figueira,FIOCRUZ,PED,1,3,Rio de Janeiro,,,BRA,-22.943075,-43.174628,1900-01-01,1900-01-01,2011-07-01,2013-08-01,Site dropped; no data available.
CN,br-ipec,Instituto Nacional de Infectologia Evandro Chagas-Fiocruz,FIOCRUZ,ADULT,1,3,Rio de Janeiro,,,BRA,-22.875695,-43.243099,1985-02-20,2015-12-31,2011-07-01,,"This site changed its name at the end of 2014 (previously IPEC, now INI)."
CN,br-ufmg,Universidade Federal de Minas Gerais ,,PED,1,3,Belo Horizonte,,,BRA,-19.875068,-43.969899,1989-01-23,2015-02-09,2012-10-01,,
CN,br-unifesp,Universidade Federal de Sao Paulo ,,PED,1,3,Sao Paulo,,,BRA,-23.592037,-46.64914,1987-01-24,2016-05-17,2012-10-01,,
CN,cl-fa,Fundacion Arriaran,,ADULT,1,3,Santiago,,,CHL,-33.461641,-70.642832,1989-04-28,2016-05-30,2006-06-01,,
CN,hn-he,Hospital Escuela,,BOTH,1,3,Tegucigalpa,,,HND,14.089196,-87.197273,1995-05-20,2016-03-15,2007-06-01,,
CN,hn-ss,Instituto Hondureno de Seguro Social,,BOTH,1,3,Tegucigalpa,,,HND,15.54241,-88.01567,1993-06-18,2016-02-16,2007-06-01,,
CN,ht-gheskio,Les Centres GHESKIO,,BOTH,1,3,Port-au-Prince,,,HTI,18.537275,-72.348965,1992-10-09,2016-05-21,2006-06-01,,
CN,mx-incmnsz,Instituto Nacional de Ciencias Medicas y Nutricion Salvador Zubiran,,ADULT,1,3,Mexico City,,,MEX,19.287986,-99.156487,1997-11-30,2015-12-31,2007-11-05,,
CN,pe-hnch,Hospital Nacional Cayetano Heredia,,PED,1,3,Lima,,,PER,-12.021973,-77.055367,2000-09-04,2016-01-12,2011-07-01,,
CN,pe-imtavh,Instituto de Medicina Tropical Alexander von Humboldt ,,ADULT,1,3,Lima,,,PER,-12.021065,-77.056284,1993-01-18,2015-08-14,2006-06-01,,
EA,EA01,CHULAIMBO SUB DISTRICT HOSPITAL,AMPATH,BOTH,3,2,MASENO,KISUMU,NYANZA,KEN,-0.0389,34.6383,2004-07-14,2014-09-17,2006-08-01,,
EA,EA02,PANDIPIERI,FACES,BOTH,2,1,KISUMU,KISUMU,NYANZA,KEN,-0.1185,34.7587,2007-07-23,2014-12-31,2007-07-23,,
EA,EA03,FAMILY HEALTH OPTIONS KENYA (KISUMU),FACES,BOTH,1,1,KISUMU,KISUMU,NYANZA,KEN,-0.1009,34.7609,2007-07-23,2014-04-29,2007-07-23,2014-04-29,
EA,EA04,MOI TEACHING AND REFERRAL HOSPITAL (MTRH HIV CLINIC),AMPATH,BOTH,2,3,ELDORET,UASIN GISHU,RIFT VALLEY,KEN,0.5111,35.2983,2001-11-27,2014-09-17,2006-08-01,,
EA,EA05,MT. ELGON,AMPATH,BOTH,3,2,KAPSOKWONY,MT. ELGON,RIFT VALLEY,KEN,0.8522,34.7019,2005-11-17,2014-09-17,2006-08-01,,
EA,EA06,KABARNET DISTRICT HOSPITAL,AMPATH,BOTH,3,2,KABARNET,BARINGO,RIFT VALLEY,KEN,0.4925,35.7434,2006-03-14,2013-04-30,2006-08-01,2013-04-30,
EA,EA07,ITEN,AMPATH,BOTH,3,2,ITEN,KEIYO,RIFT VALLEY,KEN,0.6703,35.5075,2006-03-17,2014-09-17,2006-08-01,,
EA,EA08,TESO DISTRICT HOSPITAL,AMPATH,BOTH,3,2,AMAGORO,TESO,WESTERN,KEN,0.6197,34.3435,2004-11-26,2014-09-17,2006-08-01,,
EA,EA09,WEBUYE DISTRICT HOSPITAL,AMPATH,BOTH,2,2,WEBUYE,BUNGOMA,WESTERN,KEN,0.6036,34.767,2004-07-29,2014-09-17,2006-08-01,,
EA,EA10,KHUNYANGU SUB DISTRICT HOSPITAL,AMPATH,BOTH,4,1,BUTULA,BUSIA,WESTERN,KEN,0.3416,34.3352,2007-02-06,2014-09-17,2007-02-06,,
EA,EA11,TURBO HEALTH CENTRE,AMPATH,BOTH,3,1,TURBO,UASIN GISHU,RIFT VALLEY,KEN,0.6222,35.0413,2004-01-15,2014-09-17,2006-08-01,,
EA,EA12,AMUKURA,AMPATH,BOTH,4,1,AMUKURA,TESO,WESTERN,KEN,0.5706,34.2719,2004-07-20,2013-04-30,2006-08-01,2013-04-30,
EA,EA13,BUSIA DISTRICT HOSPITAL,AMPATH,BOTH,2,2,BUSIA,BUSIA,WESTERN,KEN,0.4604,34.1045,2006-06-06,2014-09-17,2006-08-01,,
EA,EA14,UASIN GISHU DISTRICT HOSPITAL,AMPATH,BOTH,2,2,CHEPKOILEL,UASIN GISHU,RIFT VALLEY,KEN,0.5306,35.2648,2007-10-31,2014-09-17,2007-10-31,,
EA,EA15,BURNT FOREST AMPATH CLINIC,AMPATH,BOTH,3,1,BURNT FOREST,UASIN GISHU,RIFT VALLEY,KEN,0.217,35.4479,2004-01-12,2014-09-17,2006-08-01,,
EA,EA16,MOSORIOT HEALTH CENTRE,AMPATH,BOTH,2,1,CHEPTARIT,NANDI NORTH,RIFT VALLEY,KEN,0.3667,35.1833,2001-11-28,2014-09-17,2006-08-01,,
EA,EA17,KITALE DISTRICT HOSPITAL,AMPATH,BOTH,2,2,KITALE,TRANS NZOIA,RIFT VALLEY,KEN,1.017,35.0037,2005-12-02,2014-09-17,2006-08-01,,
EA,EA18,KAPENGURIA DISTRICT HOSPITAL,AMPATH,BOTH,3,2,KAPENGURIA,WEST POKOT,RIFT VALLEY,KEN,1.2401,35.1184,,2010-06-18,,2010-06-18,
EA,EA19,LUMUMBA,FACES,BOTH,1,1,KISUMU,KISUMU,NYANZA,KEN,-0.1,34.7666,2007-07-23,2014-12-31,2007-07-23,,
EA,EA20,TUUNGANE YOUTH CENTRE,FACES,BOTH,1,1,KISUMU,KISUMU,NYANZA,KEN,-0.0899,34.766,2007-07-23,2014-12-31,2007-07-23,,
EA,EA21,PORT VICTORIA DISTRICT HOSPITAL,AMPATH,BOTH,3,2,PORT VICTORIA,BUSIA,WESTERN,KEN,0.0972,33.9758,2006-08-15,2014-09-17,2006-08-15,,
EA,EA22,NAITIRI HEALTH CENTRE,AMPATH,BOTH,4,1,NAITIRI,BUNGOMA NORTH,WESTERN,KEN,0.7556,34.8908,2004-07-30,2013-04-30,2006-08-01,2013-04-30,
EA,EA23,NEW NYANZA PROVINCIAL HOSPITAL,MTCT-PLUS,BOTH,1,2,KISUMU,KISUMU,NYANZA,KEN,-0.0891,34.7711,2003-06-25,2010-08-11,2006-08-01,2010-08-11,
EA,EA24,MIGORI DISTRICT HOSPITAL,FACES,BOTH,3,2,MIGORI,MIGORI,NYANZA,KEN,-1.0632,34.477,2007-07-23,2014-12-31,2007-07-23,,
EA,EA25,RAKAI,RAKAI,BOTH,3,2,RAKAI,RAKAI,CENTRAL UGANDA,UGA,-0.535,31.6225,2012-01-05,2012-03-31,2012-01-05,,
EA,EA26,MOROGORO REGIONAL HOSPITAL,NACP,BOTH,1,3,MOROGORO,ULANGA,MOROGORO,TZA,-6.8277,37.6723,2004-10-15,2014-08-01,2006-08-01,,
EA,EA27,OCEAN ROAD CANCER INSTITUTE(ORCI),NACP,BOTH,1,3,DAR-ES-SALAM,DAR-ES-SALAM,DAR-ES-SALAM,TZA,-6.81,39.2966,2005-01-03,2014-09-04,2006-08-01,2016-08-01,"Per Bev's 2016-07-22 email, ORCI's drop date is 2016-08-01"
EA,EA28,TUMBI SPECIAL HOSPITAL CTC,NACP,BOTH,1,3,KIBAHA,DAR-ES-SALAM,DAR-ES-SALAM,TZA,-6.7846,38.9707,2005-01-01,2014-09-09,2006-08-01,,
EA,EA29,MASAKA REGIONAL HOSPITAL,MASAKA,BOTH,3,3,MASAKA,MASAKA,CENTRAL UGANDA,UGA,0.3128,31.7131,2002-02-15,2014-10-23,2006-08-01,,
EA,EA30,MU-JHU,MTCT-PLUS,BOTH,1,3,KAMPALA,KAMPALA,CENTRAL UGANDA,UGA,0.3167,32.5833,2003-04-16,2010-06-11,2006-08-01,2010-06-11,
EA,EA32,MBARARA REGIONAL REFERRAL HOSPITAL,MBARARA,ADULT,2,3,MBARARA,MBARARA,MBARARA,UGA,-0.6164,30.6583,1998-01-21,2014-06-30,2006-08-01,,
EA,EA33,SAN RAPHAEL/ST. FRANCIS HOSPITAL; NSAMBYA,MTCT-PLUS,BOTH,1,3,KAMPALA,KAMPALA,CENTRAL UGANDA,UGA,0.3017,32.585,2003-03-10,2010-10-14,2006-08-01,2010-10-14,
EA,EA34,INFECTIOUS DISEASE INSTITUTE (IDI),IDI,ADULT,1,3,KAMPALA,KAMPALA,CENTRAL UGANDA,UGA,0.3381,32.5772,2002-01-01,2014-07-09,2006-08-01,,
EA,EA35,KISUMU DISTRICT HOSPITAL,FACES,BOTH,1,2,KISUMU,KISUMU,NYANZA,KEN,-0.1009,34.7557,2007-07-23,2010-10-31,2007-07-23,2010-10-31,
EA,EA41,RONGO DISTRICT HOSPITAL,FACES,BOTH,2,2,RONGO,MIGORI,NYANZA,KEN,-0.758,34.5996,2007-07-23,2014-12-31,2007-07-23,,
EA,EA46,SUBA DISTRICT HOSPITAL,FACES,BOTH,3,2,SINDO,HOMA BAY,NYANZA,KEN,-0.5382,34.1676,2007-07-23,2014-12-31,2007-07-23,,
EA,EA55,ZIWA SUB-DISTRICT HOSPITAL,AMPATH,BOTH,4,2,ZIWA,UASIN GISHU,RIFT VALLEY,KEN,0.5527,35.3027,2007-09-09,2014-09-17,2007-09-09,,
EA,EA56,ANDERSON,AMPATH,BOTH,1,1,NAIROBI,NAIROBI,NAIROBI,KEN,-1.2926,36.7888,,2014-09-17,,,
EA,EA57,TURBO POLICE STATION(IDP),AMPATH,ADULT,4,1,TURBO,UASIN GISHU,RIFT VALLEY,KEN,0.6342,35.0471,,2014-09-17,,2014-09-17,LDR 2016-07-21 set the site closed data to the database close date for this Internally Displaced Persons (IDP) site.
EA,EA58,NAIROBI(IDP),AMPATH,BOTH,1,1,NAIROBI,NAIROBI,NAIROBI,KEN,-1.2833,36.8167,,2014-09-17,,2014-09-17,LDR 2016-07-21 set the site closed data to the database close date for this Internally Displaced Persons (IDP) site.
EA,EA59,ELDORET SHOWGROUND(IDP),AMPATH,ADULT,1,1,ELDORET,UASIN GISHU,RIFT VALLEY,KEN,0.5167,35.2833,,2014-09-17,,2014-09-17,LDR 2016-07-21 set the site closed data to the database close date for this Internally Displaced Persons (IDP) site.
EA,EA60,ELDAMARAVINE POLICE STATION(IDP),AMPATH,BOTH,3,1,ELDAMA RAVINE,KOIBATEK,RIFT VALLEY,KEN,0.05,35.7167,,2014-09-17,,2014-09-17,LDR 2016-07-21 set the site closed data to the database close date for this Internally Displaced Persons (IDP) site.
EA,EA61,MOIS BRIDGE(IDP),AMPATH,BOTH,4,1,MOIS BRIDGE,UASIN GISHU,RIFT VALLEY,KEN,0.878,35.1221,,2014-09-17,,2014-09-17,LDR 2016-07-21 set the site closed data to the database close date for this Internally Displaced Persons (IDP) site.
EA,EA62,TIMBOROA POLICE STATION(IDP),AMPATH,ADULT,3,1,TIMBOROA,UASIN GISHU,RIFT VALLEY,KEN,0.0667,35.5422,,2014-09-17,,2014-09-17,LDR 2016-07-21 set the site closed data to the database close date for this Internally Displaced Persons (IDP) site.
EA,EA63,BISHOP MUGE(IDP),AMPATH,BOTH,3,1,TIMBOROA,UASIN GISHU,RIFT VALLEY,KEN,0.13,35.86,,2014-09-17,,2014-09-17,LDR 2016-07-21 set the site closed data to the database close date for this Internally Displaced Persons (IDP) site.
EA,EA64,KIPKENYO(IDP),AMPATH,BOTH,1,1,ELDORET,UASIN GISHU,RIFT VALLEY,KEN,0.5315,35.2123,,2014-09-17,,2014-09-17,LDR 2016-07-21 set the site closed data to the database close date for this Internally Displaced Persons (IDP) site.
EA,EA65,ENDEBES(IDP),AMPATH,BOTH,1,1,KITALE,TRANS NZOIA,RIFT VALLEY,KEN,1.0894,34.8561,,2014-09-17,,2014-09-17,LDR 2016-07-21 set the site closed data to the database close date for this Internally Displaced Persons (IDP) site.
EA,EA66,BUMALA A HEALTH CENTER,AMPATH,BOTH,1,1,BUSIA,BUSIA,WESTERN,KEN,0.307,34.2004,2008-10-14,2014-09-17,2008-10-14,,
EA,EA67,MOIS BRIDGE,AMPATH,BOTH,4,1,MOIS BRIDGE,UASIN GISHU,RIFT VALLEY,KEN,0.878,35.1221,2009-03-20,2014-09-17,2009-03-20,,
EA,EA68,MOI UNIVERSITY,AMPATH,BOTH,1,1,ELDORET,UASIN GISHU,RIFT VALLEY,KEN,0.2884,35.2876,2009-03-18,2014-09-17,2009-03-18,,
EA,EA69,SOY HEALTH CENTER,AMPATH,BOTH,1,1,SOY,UASIN GISHU,RIFT VALLEY,KEN,0.677,35.1726,2009-07-22,2014-09-17,2009-07-22,,
EA,EA70,MUKHOBOLA,AMPATH,BOTH,4,1,PORT VICTORIA,BUSIA,WESTERN,KEN,0.083,34.0474,2009-04-06,2014-09-17,2009-04-06,,
EA,EA71,NAMBALE,AMPATH,BOTH,4,1,NAMBALE,BUSIA,WESTERN,KEN,0.4459,34.2519,2009-04-06,2013-04-30,2009-04-06,2013-04-30,
EA,EA72,MOI BARRACKS,AMPATH,BOTH,1,1,ELDORET,UASIN GISHU,RIFT VALLEY,KEN,0.6603,35.1639,,2014-09-17,,,
EA,EA73,MOI TEACHING AND REFERRAL HOSPITAL,AMPATH NON-HIV,BOTH,1,3,ELDORET,UASIN GISHU,RIFT VALLEY,KEN,0.5116,35.2804,,2014-09-17,,,
EA,EA74,SIO PORT,AMPATH,BOTH,3,1,SIO PORT,BUSIA,WESTERN,KEN,0.2252,34.0213,2010-05-26,2013-05-31,2010-05-26,2013-05-31,
EA,EA75,LUPIDA,AMPATH,BOTH,4,1,NAMBALE,BUSIA,WESTERN,KEN,0.5771,34.3526,2010-11-02,2013-04-30,2010-11-02,2013-04-30,
EA,EA76,MADENDE HEALTH CENTER,AMPATH,BOTH,4,1,MUNGATSI,BUSIA,WESTERN,KEN,0.4767,34.3465,,2013-04-30,,2013-04-30,
EA,EA77,RAI-PLYWOOD,AMPATH,BOTH,1,1,ELDORET,UASIN GISHU,RIFT VALLEY,KEN,0.5183,35.2717,,2014-09-17,,2016-07-01,Exclusion date is not exact.  Awaiting response from country coordinator -BSM
EA,EA78,AKICHELESIT,AMPATH,BOTH,4,1,ANGURAI,TESO,WESTERN,KEN,0.6913,34.3432,,2014-09-17,,,
EA,EA79,ABOLOI DISPENSARY,AMPATH,ADULT,4,1,MALAKISI,TESO,WESTERN,KEN,0.6544,34.3933,,2014-09-17,,,
EA,EA80,KAMARA(IDP),AMPATH,ADULT,3,1,KAMARA,NAKURU,RIFT VALLEY,KEN,-0.5667,35.8,,2014-09-17,,2014-09-17,LDR 2016-07-21 set the site closed data to the database close date for this Internally Displaced Persons (IDP) site.
EA,EA81,KISESA,NACP,BOTH,4,1,KISESA,MAGU,MWANZA,TZA,3.0833,34.15,2008-08-26,2014-09-01,2008-08-26,,
EA,EA82,SAMBUT,AMPATH,BOTH,3,1,KAMAGUT,UASIN GISHU,RIFT VALLEY,KEN,0.6358,35.1469,,2014-09-17,,2016-07-01,Awaiting on exact exclusion date from country coordinator -BSM
EA,EA83,NGENYILEL,AMPATH,BOTH,4,1,NGENYILEL,UASIN GISHU,RIFT VALLEY,KEN,0.6233,34.9888,,2014-09-17,,,
EA,EA84,SOSIANI HEALTH CENTER,AMPATH,BOTH,4,1,SUGOI,UASIN GISHU,RIFT VALLEY,KEN,0.57,35.1588,,2014-09-17,,,
EA,EA85,MATAYOS HEALTH CENTRE,AMPATH,BOTH,3,1,MATAYOS,BUSIA,WESTERN,KEN,0.366,34.1652,,2014-09-17,,,
EA,EA86,CHEBAIYWA,AMPATH,BOTH,4,1,KIPKAREN,NANDI NORTH,RIFT VALLEY,KEN,0.4999,35.0474,,2014-09-17,,,
EA,EA87,ELGEYO BORDER,AMPATH,BOTH,4,1,ELDORET,UASIN GISHU,RIFT VALLEY,KEN,0.5484,35.4175,,2014-09-17,,,
EA,EA88,BIRIBIRIET,AMPATH,BOTH,4,1,MLANGO,NANDI NORTH,RIFT VALLEY,KEN,0.4066,35.1672,,2014-09-17,,,
EA,EA89,LELMOKWO,AMPATH,BOTH,4,1,MLANGO,NANDI NORTH,RIFT VALLEY,KEN,0.4,35.15,,2014-09-17,,,
EA,EA90,NGECHEK,AMPATH,BOTH,4,1,MOSORIOT,NANDI NORTH,RIFT VALLEY,KEN,0.3044,35.2237,,2014-09-17,,,
EA,EA91,CHERAMEI,AMPATH,BOTH,3,1,LESERU,UASIN GISHU,RIFT VALLEY,KEN,0.6077,35.1458,,2014-09-17,,,
EA,EA92,CHEPKEMEL,AMPATH,BOTH,4,1,SONDU,NANDI NORTH,RIFT VALLEY,KEN,-0.3643,35.0518,,2014-09-17,,,
EA,EA93,MODING,AMPATH,BOTH,4,1,MALAKISI,TESO,WESTERN,KEN,0.7614,34.3342,,2014-09-17,,,
NA,1,Southern Alberta Clinic ,SAC,ADULT,,,Calgary,,AB,CAN,51.04522,-114.063014,,,,,
NA,10,DAVIS MEDICAL CTR UNIV OF CA,ALLRT,ADULT,,,Sacramento,,CA,USA,38.579065,-121.491014,,,,,
NA,100,Park Nicollet Clinic,SUN,ADULT,,,Minneapolis,,MN,USA,44.979035,-93.264929,,,,,
NA,101,CONNECT CARE (FORMERLY ST. LOUIS REGIONAL),ALLRT,ADULT,,,St. Louis,,MO,USA,38.62774,-90.199514,,,,,
NA,102,WASHINGTON UNIVERSITY,ALLRT,ADULT,,,St. Louis,,MO,USA,38.62774,-90.199514,,,,,
NA,103,Nemechek Health Renewal,HIVRN,ADULT,,,Kansas City,,MO,USA,39.10296,-94.583062,,,,,
NA,104,St. Louis University Health Sciences Center,MHCS-II,ADULT,,,St. Louis,,MO,USA,38.62774,-90.199514,,,,,
NA,105,Washington University HIV Clinic,SUN,ADULT,,,St. Louis,,MO,USA,38.62774,-90.199514,,,,,
NA,106,University of Mississippi Medical Center,MHCS-II,ADULT,,,Jackson,,MS,USA,32.29869,-90.180489,,,,,
NA,107,Moncton Hemophilia Clinic,MHCS-II,ADULT,,,Moncton,,NB,USA,46.08836,-64.778259,,,,,
NA,108,UNIVERSITY OF NORTH CAROLINA,ALLRT,ADULT,,,Chapel Hill,,NC,USA,35.914771,-79.056701,,,,,
NA,109,CAROLINAS MEDICAL CENTER (CHARLOTTE),ALLRT,ADULT,,,Charlotte,,NC,USA,35.22269,-80.837764,,,,,
NA,11,UC DAVIS ACTU AT CARES,ALLRT,ADULT,,,Sacramento,,CA,USA,38.579065,-121.491014,,,,,
NA,110,DUKE UNIV MED CTR ADULT CRS,ALLRT,ADULT,,,Durham,,NC,USA,35.995275,-78.896014,,,,,
NA,111,MOSES CONE HOSPITAL (GREENSBORO),ALLRT,ADULT,,,Greensboro,,NC,USA,36.068994,-79.794704,,,,,
NA,112,University of North Carolina at Chapel Hill,LSOCA,ADULT,,,Chapel Hill,,NC,USA,35.914771,-79.056701,,,,,
NA,113,University of North Carolina at Chapel Hill,MHCS-II,ADULT,,,Chapel Hill,,NC,USA,35.914771,-79.056701,,,,,
NA,114,Wake Forest University School of Medicine,MHCS-II,ADULT,,,Winston-Salem,,NC,USA,36.099625,-80.241094,,,,,
NA,115,"University of North Carolina, Chapel Hill HIV Clinic",UCHCC,ADULT,,,Chapel Hill,,NC,USA,35.914771,-79.056701,,,,,
NA,116,UNIVERSITY OF NEBRASKA MEDICAL CENTER,ALLRT,ADULT,,,Omaha,,NE,USA,41.260675,-95.940469,,,,,
NA,118,BUFFALO,ALLRT,ADULT,,,Buffalo,,NY,USA,42.88544,-78.878464,,,,,
NA,119,AARON DIAMOND AIDS RESEARCH CENTER/ROCKE,ALLRT,ADULT,,,New York,,NY,USA,40.71455,-74.007124,,,,,
NA,12,UC SAN DIEGO MEDICAL CENTER,ALLRT,ADULT,,,San Diego,,CA,USA,32.715695,-117.161719,,,,,
NA,120,BETH ISRAEL MEDICAL CENTER ,ALLRT,ADULT,,,New York,,NY,USA,40.71455,-74.007124,,,,,
NA,121,CORNELL CRS,ALLRT,ADULT,,,New York,,NY,USA,40.71455,-74.007124,,,,,
NA,122,HIV PREVENTION & TREATMENT CRS,ALLRT,ADULT,,,New York,,NY,USA,40.71455,-74.007124,,,,,
NA,123,MOUNT SINAI MEDICAL CENTER,ALLRT,ADULT,,,New York,,NY,USA,40.71455,-74.007124,,,,,
NA,124,NY UNIV. HIV/AIDS CRS,ALLRT,ADULT,,,New York,,NY,USA,40.71455,-74.007124,,,,,
NA,125,WEILL MED COLLEGE OF CORNELL UNIV,ALLRT,ADULT,,,New York,,NY,USA,40.71455,-74.007124,,,,,
NA,126,COMMUNITY HEALTH NETWORK INC,ALLRT,ADULT,,,Rochester,,NY,USA,43.1555,-77.616033,,,,,
NA,127,MCCREE MCCULLER WELLNESS CTR,ALLRT,ADULT,,,Rochester,,NY,USA,43.1555,-77.616033,,,,,
NA,128,ROCHESTER,ALLRT,ADULT,,,Rochester,,NY,USA,43.1555,-77.616033,,,,,
NA,129,Montefiore Medical Center,HIVRN,ADULT,,,Bronx,,NY,USA,40.825745,-73.923249,,,,,
NA,13,SAN FRANCISCO GENERAL HOSPITAL,ALLRT,ADULT,,,San Francisco,,CA,USA,37.777125,-122.419644,,,,,
NA,131,AIDS Community Health Center,HIVRN,ADULT,,,Rochester,,NY,USA,43.1555,-77.616033,,,,,
NA,132,SUNY-Stonybrook,HOPS,ADULT,,,Stonybrook,,NY,USA,40.919163,-73.129583,,,,,
NA,133,Cornell Medical Center,LSOCA,ADULT,,,Buffalo,,NY,USA,42.88544,-78.878464,,,,,
NA,134,NYU Med Center,LSOCA,ADULT,,,New York,,NY,USA,40.71455,-74.007124,,,,,
NA,135,Hemophilia Center of Western New York,MHCS-II,ADULT,,,New York,,NY,USA,40.71455,-74.007124,,,,,
NA,136,Long Island Jewish Health Systems,MHCS-II,ADULT,,,Lake Success,,NY,USA,40.76604,-73.706274,,,,,
NA,137,Cornell Medical Center,MHCS-II,ADULT,,,New York,,NY,USA,40.71455,-74.007124,,,,,
NA,138,Mount Sinai Medical Center,MHCS-II,ADULT,,,New York,,NY,USA,40.71455,-74.007124,,,,,
NA,139,Bronx VAMC,VACS,ADULT,,,Bronx,,NY,USA,40.825745,-73.923249,,,,,
NA,14,SANTA CLARA VALLEY MEDICAL CENTER,ALLRT,ADULT,,,San Jose,,CA,USA,37.338475,-121.885794,,,,,
NA,140,Brooklyn VAMC,VACS,ADULT,,,Brooklyn,,NY,USA,40.692455,-73.990364,,,,,
NA,141,Montefiore Medical Center,WIHS,ADULT,,,Bronx,,NY,USA,40.825745,-73.923249,,,,,
NA,142,State University of New York Downstate Medical Center,WIHS,ADULT,,,Brooklyn,,NY,USA,40.692455,-73.990364,,,,,
NA,143,U. OF CINCINNATI COL. OF MED.,ALLRT,ADULT,,,Cincinnati,,OH,USA,39.106614,-84.504552,,,,,
NA,144,CASE WESTERN RESERVE,ALLRT,ADULT,,,Cleveland,,OH,USA,41.50438,-81.690434,,,,,
NA,145,CLEVELAND CLINIC FOUNDATION,ALLRT,ADULT,,,Cleveland,,OH,USA,41.50438,-81.690434,,,,,
NA,146,Metrohealth Medical Center,ALLRT,ADULT,,,Cleveland,,OH,USA,41.50438,-81.690434,,,,,
NA,147,OHIO STATE,ALLRT,ADULT,,,Columbus,,OH,USA,39.96196,-83.002984,,,,,
NA,148,John Carey Special Immunology Unit of University Hospitals of Cleveland,CWRU,ADULT,,,Cleveland,,OH,USA,41.50438,-81.690434,,,,,
NA,15,SAN MATEO COUNTY AIDS PROGRAM,ALLRT,ADULT,,,San Mateo,,CA,USA,37.54703,-122.314834,,,,,
NA,150,University of Cincinnati Medical Center,MHCS-II,ADULT,,,Cincinnati,,OH,USA,39.106614,-84.504552,,,,,
NA,151,Ohio State University Hemophilia Treatment Center,MHCS-II,ADULT,,,Columbus,,OH,USA,39.96196,-83.002984,,,,,
NA,153,Oklahoma Center for Bleeding Disorders,MHCS-II,ADULT,,,Oklahoma City,,OK,USA,35.472015,-97.520354,,,,,
NA,154,South Western Ontario Regional Hemophilia Program,MHCS-II,ADULT,,,London,,ON,USA,37.127171,-84.083771,,,,,
NA,155,St Josephs Hospital (inactive),OHTN,ADULT,,,Hamilton,,ON,CAN,43.26099,-79.888454,,,,,
NA,156,Hotel Dieu Hospital,OHTN,ADULT,,,Kingston,,ON,CAN,44.231535,-76.479334,,,,,
NA,157,St Josephs Health Care,OHTN,ADULT,,,London,,ON,CAN,42.986895,-81.246214,,,,,
NA,158,Ottawa General Hospital,OHTN,ADULT,,,Ottawa,,ON,CAN,45.42178,-75.691184,,,,,
NA,159,University of Ottawa Health Services (inactive),OHTN,ADULT,,,Ottawa,,ON,CAN,45.42178,-75.691184,,,,,
NA,16,Marin County Department of Health,ALLRT,ADULT,,,San Rafael,,CA,USA,37.97457,-122.532474,,,,,
NA,160,Sudbury Regional Hospital,OHTN,ADULT,,,Sudbury,,ON,CAN,46.490002,-80.990013,,,,,
NA,161,Maple Leaf Medical Clinic,OHTN,ADULT,,,Toronto,,ON,CAN,43.64856,-79.385324,,,,,
NA,162,St. Michael's Hospital - Health Centre at 410,OHTN,ADULT,,,Toronto,,ON,CAN,43.64856,-79.385324,,,,,
NA,163,St. Michael's Hospital - Positive Care Clinic,OHTN,ADULT,,,Toronto,,ON,CAN,43.64856,-79.385324,,,,,
NA,164,Sunnybrook Health Sciences Centre,OHTN,ADULT,,,Toronto,,ON,CAN,43.64856,-79.385324,,,,,
NA,165,Toronto General Hospital,OHTN,ADULT,1,3,Toronto,,ON,CAN,43.64856,-79.385324,,,,,
NA,166,Windsor Regional Hospital,OHTN,ADULT,,,Windsor,,ON,CAN,42.31782,-83.033914,,,,,
NA,167,Oregon Health and Sciences University,HIVRN,ADULT,,,Portland,,OR,USA,45.511795,-122.675629,,,,,
NA,168,PRESBYERIAN MEDICAL CENTER,ALLRT,ADULT,,,Philadelphia,,PA,USA,39.95228,-75.162454,,,,,
NA,169,"UNIVERSITY OF PENNSYLVANIA, PHILADELPHIA",ALLRT,ADULT,,,Philadelphia,,PA,USA,39.95228,-75.162454,,,,,
NA,17,HARBOR / UCLA MEDICAL CENTER,ALLRT,ADULT,,,Torrance,,CA,USA,33.836668,-118.341661,,,,,
NA,170,PITTSBURGH,ALLRT,ADULT,,,Pittsburgh,,PA,USA,40.438335,-79.997459,,,,,
NA,172,"Drexel University College of Medicine, Partnership Comprehensive Care Practice",HIVRN,ADULT,,,Philadelphia,,PA,USA,39.95228,-75.162454,,,,,
NA,173,Temple University,HOPS,ADULT,,,Philadelphia,,PA,USA,39.95228,-75.162454,,,,,
NA,174,University of Pennsylvania Med Center,LSOCA,ADULT,,,Philadelphia,,PA,USA,39.95228,-75.162454,,,,,
NA,175,University of Pittsburgh,MACS,ADULT,,,Pittsburgh,,PA,USA,40.438335,-79.997459,,,,,
NA,176,Penn State College of Medicine at Hershey,MHCS-II,ADULT,,,Hershey,,PA,USA,40.285319,-76.651055,,,,,
NA,177,Cardeza Foundation Hemophilia Center,MHCS-II,ADULT,,,Philadelphia,,PA,USA,39.95228,-75.162454,,,,,
NA,179,University of Pennsylvania,MHCS-II,ADULT,,,Philadelphia,,PA,USA,39.95228,-75.162454,,,,,
NA,18,HIV ACCESS - Alameda County Health Consortium,HIVRN,ADULT,,,Oakland,,CA,USA,37.805065,-122.273024,,,,,
NA,180,"Center for Health Equity Research and Promotion School of Medicine, University of Pittsburgh",VACS,ADULT,,,Pittsburgh,,PA,USA,40.438335,-79.997459,,,,,
NA,181,UNIVERSITY OF PUERTO RICO,ALLRT,ADULT,1,,San Juan,,PR,USA,18.46617,-66.106654,,,,,
NA,182,Retrovirus Research Center (RRC) of the Universidad Central del Caribe (UCC),RRC,ADULT,,,Bayamon,,PR,USA,18.394095,-66.147379,,,,,
NA,183,Immunodeficiency Service at the Montreal Chest Institute,MONT,ADULT,,,Montreal,,QC,CAN,45.512303,-73.554431,,,,,
NA,184,THE MIRIAM HOSPITAL RHODE ISLAND,ALLRT,ADULT,,,Providence,,RI,USA,41.823875,-71.411994,,,,,
NA,185,Immunology Center of the Miriam Hospital,SUN,ADULT,,,Providence,,RI,USA,41.823875,-71.411994,,,,,
NA,186,South Carolina Cancer Center,MHCS-II,ADULT,,,Columbia,,SC,USA,33.99855,-81.045249,,,,,
NA,187,University of Tennessee-Memphis,MHCS-II,ADULT,,,Memphis,,TN,USA,35.149766,-90.049259,,,,,
NA,188,Vanderbilt University Medical Center,MHCS-II,ADULT,1,3,Nashville,,TN,USA,36.167783,-86.778365,,,,,
NA,189,Vanderbilt-Meharry CFAR Satellite - Columbia,Vanderbilt,ADULT,,1,Columbia,,TN,USA,35.615725,-87.035447,,,,,
NA,19,UCSD - Owen Clinic,HIVRN,ADULT,,,San Diego,,CA,USA,32.715695,-117.161719,,,,,
NA,190,Vanderbilt-Meharry CFAR Satellite - Cookeville,Vanderbilt,ADULT,,1,Cookeville,,TN,USA,36.16193,-85.499804,,,,,
NA,191,Vanderbilt-Meharry CFAR Satellite - Nashville,Vanderbilt,ADULT,1,1,Nashville,,TN,USA,36.167783,-86.778365,,,,,
NA,192,Vanderbilt-Meharry CFAR Satellite - Springfield,Vanderbilt,ADULT,,1,Springfield,,TN,USA,36.509375,-86.885294,,,,,
NA,193,UNIVERSITY OF TEXAS SOUTHWESTERN MEDICAL,ALLRT,ADULT,,,Dallas,,TX,USA,32.778155,-96.795404,,,,,
NA,194,"UNIVERSITY OF TEXAS, GALVESTON",ALLRT,ADULT,,,Galveston,,TX,USA,29.295325,-94.807909,,,,,
NA,195,Parkland Health and Hospital System,HIVRN,ADULT,,,Dallas,,TX,USA,32.778155,-96.795404,,,,,
NA,196,Baylor College- Cullen Eye Institute,LSOCA,ADULT,1,,Waco,,TX,USA,31.571821,-97.149507,,,,,
NA,197,Gulf States Hemophilia and Thrombophilia Center,MHCS-II,ADULT,,,Houston,,TX,USA,29.76045,-95.369784,,,,,
NA,198,South Texas Comprehensive Hemophilia Center,MHCS-II,ADULT,,,San Antonio,,TX,USA,29.42449,-98.494619,,,,,
NA,199,Michael E. DeBakey VA Medical Center,VACS,ADULT,,,Houston,,TX,USA,29.76045,-95.369784,,,,,
NA,2,UNIVERSITY OF ALABAMA AT BIRMINGHAM,ALLRT,ADULT,,,Birmingham,,AL,USA,33.520295,-86.811504,,,,,
NA,200,Mountain States Regional Hemo Center of Utah,MHCS-II,ADULT,,,Salt Lake City,,UT,USA,40.759505,-111.888229,,,,,
NA,201,Mid-Atlantic Permanente Research Institute,KPMAS,ADULT,,,McLean,,VA,USA,38.936529,-77.184285,,,,,
NA,202,Medical College of Virginia Hospital,MHCS-II,ADULT,,,Richmond,,VA,USA,37.5407,-77.433654,,,,,
NA,203,UNIVERSITY OF WASHINGTON,ALLRT,ADULT,1,,Seattle,,WA,USA,47.60356,-122.329439,,,,,
NA,204,Puget Sound Blood Center,MHCS-II,ADULT,,,Seattle,,WA,USA,47.60356,-122.329439,,,,,
NA,205,UW Harborview Medical Center Madison HIV Clinic,UW,ADULT,,,Seattle,,WA,USA,47.60356,-122.329439,,,,,
NA,206,UW Medical Center Virology Clinic,UW,ADULT,,,Seattle,,WA,USA,47.60356,-122.329439,,,,,
NA,207,Blood Center for Southeastern Wisconsin,MHCS-II,ADULT,,,Milwaukee,,WI,USA,43.04181,-87.906844,,,,,
NA,21,Kaiser Permanente Northern California HIV/AIDS Registry - Oakland,KPNC,ADULT,,,Oakland,,CA,USA,37.805065,-122.273024,,,,,
NA,22,Kaiser Permanente Northern California HIV/AIDS Registry - Sacramento,KPNC,ADULT,,,Sacramento,,CA,USA,38.579065,-121.491014,,,,,
NA,23,UCLA,LSOCA,ADULT,,,Los Angeles,,CA,USA,34.05349,-118.245319,,,,,
NA,24,UCSD,LSOCA,ADULT,,,San Diego,,CA,USA,32.715695,-117.161719,,,,,
NA,25,UCSF,LSOCA,ADULT,,,San Francisco,,CA,USA,37.777125,-122.419644,,,,,
NA,26,UCLA,MACS,ADULT,,,Los Angeles,,CA,USA,34.05349,-118.245319,,,,,
NA,27,University of California at Davis,MHCS-II,ADULT,,,Davis,,CA,USA,38.546699,-121.744576,,,,,
NA,29,UCSF Medical Center,MHCS-II,ADULT,,,San Francisco,,CA,USA,37.777125,-122.419644,,,,,
NA,3,1917 Clinic,UAB 1917,ADULT,,,Birmingham,,AL,USA,33.520295,-86.811504,,,,,
NA,30,"San Francisco General Hospital, Ward 84",SCOPE,ADULT,,,San Francisco,,CA,USA,37.777125,-122.419644,,,,,
NA,31,San Francisco VA Medical Center,SCOPE,ADULT,,,San Francisco,,CA,USA,37.777125,-122.419644,,,,,
NA,32,West Los Angeles VA Healthcare Center,VACS,ADULT,,,Los Angeles,,CA,USA,34.05349,-118.245319,,,,,
NA,33,University of Southern California,WIHS,ADULT,,,Los Angeles,,CA,USA,34.05349,-118.245319,,,,,
NA,34,"University of California, San Francisco",WIHS,ADULT,,,San Francisco,,CA,USA,37.777125,-122.419644,,,,,
NA,35,UNIVERSITY OF COLORADO HEALTH SCIENCES,ALLRT,ADULT,,,Aurora,,CO,USA,39.70871,-104.812652,,,,,
NA,36,Denver Infectious Disease Clinic (DIDC),HOPS,ADULT,,,Denver ,,CO,USA,39.74001,-104.992259,,,,,
NA,37,National Jewish Med. Center,HOPS,ADULT,,,Denver ,,CO,USA,39.74001,-104.992259,,,,,
NA,38,Mountain States Regional Hemo & Thrombosis Center,MHCS-II,ADULT,,,Aurora,,CO,USA,39.70871,-104.812652,,,,,
NA,39,HIV Clinic of the University of Colorado Health Sciences Center,SUN,ADULT,,,Denver,,CO,USA,39.74001,-104.992259,,,,,
NA,4,University of Arizona,MHCS-II,ADULT,,,Tucson,,AZ,USA,32.221553,-110.969754,,,,,
NA,40,Infectious Disease Consultants of Rose Medical Center,SUN,ADULT,,,Denver,,CO,USA,39.74001,-104.992259,,,,,
NA,41,GEORGETOWN UNIVERSITY,ALLRT,ADULT,,,Washington,,DC,USA,38.89037,-77.031959,,,,,
NA,42,Dupont Circle Physicians,HOPS,ADULT,,,Washington,,DC,USA,38.89037,-77.031959,,,,,
NA,43,Mid-Atlantic Permanente Research Institute,KPMAS,ADULT,,,Washington,,DC,USA,38.89037,-77.031959,,,,,
NA,44,Whitman-Walker Clinic,MACS,ADULT,,,Washington,,DC,USA,38.89037,-77.031959,,,,,
NA,46,Lombardi Cancer Center,MHCS-II,ADULT,,,Washington,,DC,USA,38.89037,-77.031959,,,,,
NA,47,Washington DC VAMC,VACS,ADULT,,,Washington,,DC,USA,38.89037,-77.031959,,,,,
NA,48,Georgetown University Medical Center,WIHS,ADULT,,,Washington,,DC,USA,38.89037,-77.031959,,,,,
NA,49,Newark Christiana Hospital,MHCS-II,ADULT,,,Newark,,DE,USA,39.678015,-75.761814,,,,,
NA,5,British Columbia Centre for Excellence in HIV/AIDS,HOMER,ADULT,,,Vancouver,,BC,CAN,49.26044,-123.114034,,,,,
NA,50,UNIVERSITY OF MIAMI,ALLRT,ADULT,,,Miami,,FL,USA,25.728985,-80.237419,,,,,
NA,51,Tampa General Health Care-University of South Florida,HIVRN,ADULT,,,Tampa,,FL,USA,27.94653,-82.459269,,,,,
NA,52,Infectious Disease Research Institute,HOPS,ADULT,,,Tampa,,FL,USA,27.94653,-82.459269,,,,,
NA,53,University of S. Florida,LSOCA,ADULT,,,Tampa,,FL,USA,27.94653,-82.459269,,,,,
NA,54,EMORY HEMO COMP EVALUATION CLINIC,ALLRT,ADULT,,,Atlanta,,GA,USA,33.748315,-84.391109,,,,,
NA,55,THE PONCE DE LEON CTR. CRS,ALLRT,ADULT,,,Atlanta,,GA,USA,33.748315,-84.391109,,,,,
NA,56,Emory University Eye Center,LSOCA,ADULT,,,Atlanta,,GA,USA,33.748315,-84.391109,,,,,
NA,57,Emory University Hemophilia Program Office,MHCS-II,ADULT,,,Atlanta,,GA,USA,33.748315,-84.391109,,,,,
NA,58,Atlanta VAMC,VACS,ADULT,,,Atlanta,,GA,USA,33.748315,-84.391109,,,,,
NA,59,"UNIVERSITY OF HAWAII AT MANOA, LEAHI Hospital",ALLRT,ADULT,,,Honolulu,,HI,USA,21.30477,-157.857614,,,,,
NA,6,UCLA MEDICAL CENTER,ALLRT,ADULT,,,Los Angeles,,CA,USA,34.05349,-118.245319,,,,,
NA,60,UNIVERSITY OF IOWA HOSPITALS AND CLINICS,ALLRT,ADULT,,,Iowa City,,IA,USA,41.657825,-91.526534,,,,,
NA,61,University of Iowa Hospitals and Clinics,MHCS-II,ADULT,,,Iowa City,,IA,USA,41.657825,-91.526534,,,,,
NA,62,COOK COUNTY HOSPITAL,ALLRT,ADULT,,,Chicago,,IL,USA,41.88415,-87.632409,,,,,
NA,63,NORTHWESTERN,ALLRT,ADULT,,,Chicago,,IL,USA,41.88415,-87.632409,,,,,
NA,64,RUSH PRESBYTERIAN/ST. LUKE'S,ALLRT,ADULT,,,Chicago,,IL,USA,41.88415,-87.632409,,,,,
NA,65,Northwestern University,HOPS,ADULT,,,Chicago,,IL,USA,41.88415,-87.632409,,,,,
NA,66,Univeristy of Illinois,HOPS,ADULT,,,Chicago,,IL,USA,41.88415,-87.632409,,,,,
NA,67,Northwestern University,LSOCA,ADULT,,,Chicago,,IL,USA,41.88415,-87.632409,,,,,
NA,68,Northwestern University,MACS,ADULT,,,Chicago,,IL,USA,41.88415,-87.632409,,,,,
NA,7,UNIVERSITY OF SOUTHERN CALIFORNIA,ALLRT,ADULT,,,Los Angeles,,CA,USA,34.05349,-118.245319,,,,,
NA,70,Comprehensive Bleeding Disorders Center (Peoria),MHCS-II,ADULT,,,Peoria,,IL,USA,40.69214,-89.587764,,,,,
NA,71,Hektoen Institute of Medicine,WIHS,ADULT,,,Chicago,,IL,USA,41.88415,-87.632409,,,,,
NA,72,INDIANA UNIVERSITY,ALLRT,ADULT,,,Indianapolis,,IN,USA,39.76691,-86.149964,,,,,
NA,73,METHODIST HOSPITAL OF INDIANA,ALLRT,ADULT,,,Indianapolis,,IN,USA,39.76691,-86.149964,,,,,
NA,74,WISHARD MEMORIAL HOSPITAL,ALLRT,ADULT,,,Indianapolis,,IN,USA,39.76691,-86.149964,,,,,
NA,75,Indiana Hemophilia & Thrombosis Center,MHCS-II,ADULT,,,Indianapolis,,IN,USA,39.76691,-86.149964,,,,,
NA,76,LOUISIANA COMP. HEMO. CARE CTR / TULANE,ALLRT,ADULT,,,New Orleans,,LA,USA,29.9537,-90.077749,,,,,
NA,77,LSU Eye Center,LSOCA,ADULT,,,New Orleans,,LA,USA,29.926647,-90.094909,,,,,
NA,78,Louisiana Comprehensive Hemophilia Care Center,MHCS-II,ADULT,,,New Orleans,,LA,USA,29.9537,-90.077749,,,,,
NA,79,BETH ISRAEL DEACONESS,ALLRT,ADULT,,,Boston,,MA,USA,42.358635,-71.056699,,,,,
NA,8,WILLOW CLINIC MENLO PARK VA,ALLRT,ADULT,,,Menlo Park,,CA,USA,37.454697,-122.177909,,,,,
NA,80,BOSTON MEDICAL CENTER,ALLRT,ADULT,,,Boston,,MA,USA,42.358635,-71.056699,,,,,
NA,81,BRIGHAM AND WOMEN'S HOSPITAL,ALLRT,ADULT,,,Boston,,MA,USA,42.358635,-71.056699,,,,,
NA,82,"HARVARD, MASSACHUSETTS GENERAL",ALLRT,ADULT,,,Boston,,MA,USA,42.358635,-71.056699,,,,,
NA,83,Fenway Community Health Center ,FENWAY,ADULT,,,Boston,,MA,USA,42.358635,-71.056699,,,,,
NA,84,ALIVE Community-based cohort,ALIVE,ADULT,,,Baltimore,,MD,USA,39.290585,-76.609264,,,,,
NA,85,JOHNS HOPKINS,ALLRT,ADULT,,,Baltimore,,MD,USA,39.290585,-76.609264,,,,,
NA,86,UNIVERSITY OF MARYLAND,ALLRT,ADULT,,,Baltimore,,MD,USA,39.290585,-76.609264,,,,,
NA,87,Moore Clinic for HIV Care,JHHCC,ADULT,,,Baltimore,,MD,USA,39.290585,-76.609264,,,,,
NA,88,Johns Hopkins Greenspring HIV Clinic,JHHCC,ADULT,,,Lutherville,,MD,USA,39.42028,-76.626663,,,,,
NA,89,Mid-Atlantic Permanente Research Institute-Gaithersburg,KPMAS,ADULT,,,Gaithersburg,,MD,USA,39.139866,-77.193829,,,,,
NA,9,STANFORD UNIVERSITY,ALLRT,ADULT,,,Palo Alto,,CA,USA,37.44466,-122.160794,,,,,
NA,90,Mid-Atlantic Permanente Research Institute-Baltimore,KPMAS,ADULT,,,Baltimore,,MD,USA,39.290585,-76.609264,,,,,
NA,91,Johns Hopkins Wilmer Eye Institute,LSOCA,ADULT,,,Baltimore,,MD,USA,39.296037,-76.591806,,,,,
NA,92,"GCRC, Johns Hopkins Medical Institutions",MACS,ADULT,,,Baltimore,,MD,USA,39.290585,-76.609264,,,,,
NA,93,Baltimore VAMC,VACS,ADULT,,,Baltimore,,MD,USA,39.290585,-76.609264,,,,,
NA,94,Wayne State University,HIVRN,ADULT,,,Detroit,,MI,USA,42.331685,-83.047924,,,,,
NA,96,UNIVERSITY OF MINNESOTA,ALLRT,ADULT,,,Minneapolis,,MN,USA,44.979035,-93.264929,,,,,
NA,97,Fairview University Medical Center,MHCS-II,ADULT,,,Minneapolis,,MN,USA,44.979035,-93.264929,,,,,
NA,98,Abbott Northwestern Hospital,SUN,ADULT,,,Minneapolis,,MN,USA,44.979035,-93.264929,,,,,
NA,99,Hennepin County Medical Center,SUN,ADULT,,,Minneapolis,,MN,USA,44.979035,-93.264929,,,,,
SA,Africa Centre,Africa Centre,Hlabisa,BOTH,4,1,Mtubatuba,,Kwa-Zulu Natal,ZAF,-28.4059,32.2143,,2012-10-19,,,
SA,ANCUABE,ANCUABE,SMARTMOZ,BOTH,4,1,Ancuabe,Ancuabe,Cabo Delgado,MOZ,-12.9779972,39.8540539,,2013-07-31,,,
SA,Aurum,Aurum,Aurum,ADULT,4,1,Johannesburg,,Gauteng,ZAF,-28.175,28.0425,,2010-03-01,,,
SA,BAULENI,Bauleni,CIDRZ,BOTH,1,1,Lusaka,,Lusaka,ZMB,-15.4420579,28.3797955,,2011-10-01,,,
SA,BIKITA,BIKITA,SMARTZIM,BOTH,,,,Bikita,Masvingo,ZWE,-20.06667,31.6,,2013-12-31,,,
SA,BOITUMELO,BOITUMELO,SMARTLES,BOTH,,,,Semonkong,Maseru District,LSO,-29.840451,28.048018,,2013-12-31,,,
SA,BUCHI MAIN,Buchi Main,CIDRZ,BOTH,,,Kitwe,,Copperbelt,ZMB,-12.7918592,28.2073391,,2011-10-01,,,
SA,BWAFWANO MEDICAL CLINIC,Bwafwano Medical Clinic,CIDRZ,BOTH,1,,Lusaka,Lusaka,Lusaka,ZMB,-15.408193,28.287167,,2011-10-01,,,
SA,CHADIZA HC,Chadiza HC,CIDRZ,BOTH,4,1,Chadiza,,Eastern,ZMB,-14.06351,32.439091,,2011-10-01,,,
SA,CHALIMBANA,Chalimbana,CIDRZ,BOTH,4,1,Chongwe,Kafue,Lusaka,ZMB,-15.332826,28.678979,,2011-10-01,,,
SA,CHAMA HOSPITAL,Chama Hospital,CIDRZ,BOTH,4,2,Chama,,Eastern,ZMB,-11.21261,33.155071,,2011-10-01,,,
SA,CHAWAMA,Chawama,CIDRZ,BOTH,1,1,Lusaka,,Lusaka,ZMB,-15.494153,28.2818967,,2011-10-01,,,
SA,CHAZANGA,CHAZANGA,CIDRZ,BOTH,1,1,Chazanga,,Eastern,ZMB,-12.5,33.3,,2011-10-01,,,
SA,CHELSTONE,Chelstone,CIDRZ,BOTH,1,1,Lusaka,,Lusaka,ZMB,-15.3657846,28.3841777,,2011-10-01,,,
SA,CHIKANKATA HOSPITAL,Chikankata Level II Hospital,CIDRZ,BOTH,4,2,Mazabuka,Mazabuka,Southern,ZMB,-15.8673,27.76123,,2011-10-01,,,
SA,CHILENJE,Chilenje,CIDRZ,BOTH,1,1,Lusaka,,Lusaka,ZMB,-15.4465997,28.3374283,,2011-10-01,,,
SA,CHINDWIN CAMP,Chindwin Camp Hospital,CIDRZ,BOTH,,,Kabweÿ,,Central,ZMB,-14.44718,28.446529,,2011-10-01,,,
SA,CHINYUNYU,Chinyunyu,CIDRZ,BOTH,4,1,Chongwe,Kafue,Lusaka,ZMB,-15.332826,28.678979,,2011-10-01,,,
SA,CHIPATA,Chipata,CIDRZ,BOTH,1,1,Lusaka,Lusaka,Lusaka,ZMB,-15.3585532,28.2921276,,2011-10-01,,,
SA,CHIPATA GENERAL HOSPITAL,Chipata General Hospital,CIDRZ,BOTH,4,3,Chipata,,Eastern,ZMB,-13.63237,32.64547,,2011-10-01,,,
SA,CHIURE,CHIURE,SMARTMOZ,BOTH,4,1,Chiure,Chiure,Cabo Delgado,MOZ,-13.38,39.952,,2013-07-31,,,
SA,CHOMA GENERAL HOSPITAL,Choma General Hospital,CIDRZ,BOTH,4,2,Choma,,Southern,ZMB,-16.816521,26.976431,,2011-10-01,,,
SA,CHONGWE HC,Chongwe HC,CIDRZ,BOTH,4,1,Chongwe,,Lusaka,ZMB,-15.332826,28.678979,,2011-10-01,,,
SA,GEORGE,George,CIDRZ,BOTH,1,1,Lusaka,,Lusaka,ZMB,-15.3859106,28.2380432,,2011-10-01,,,
SA,GONDAR,GONDAR,CIDRZ,BOTH,,,Chipata,Chipata,Eastern,ZMB,-13.63237,32.64547,,2011-10-01,,,
SA,Gugulethu,Gugulethu,Gugulethu,ADULT,1,1,Cape Town,Cape Town Metropolitan,Western Cape,ZAF,-33.9811,18.573,2002-09-30,2011-08-01,,,
SA,GWEMBE DISTRICT HOSPITAL,Gwembe District Hospital,CIDRZ,BOTH,4,2,Gwembe,Choma,Southern,ZMB,-16.5,27.616667,,2011-10-01,,,
SA,Harriet Shezi,Harriet Shezi,Harrietshezi,PED,1,3,Johannesburg,Soweto,Gauteng,ZAF,-26.26144,27.94051,1998-01-01,2011-01-08,,,
SA,HOFMEYR,Hofmeyr,CIDRZ,BOTH,4,1,Nyimba,Petauke,Eastern,ZMB,-14.55283,30.81402,,2011-10-01,,,
SA,ITEZHI-TEZHI HOSPITAL,Itezhi-tezhi Hospital,CIDRZ,BOTH,,,Itezhi-tezhi,Namwala,Southern,ZMB,-15.7409369,26.0443442,,2011-10-01,,,
SA,ITUFA,Itufa,CIDRZ,BOTH,4,1,Itufa,Senanga,Western,ZMB,-15.933333,23.283333,,2011-10-01,,,
SA,JON HOSPICE,Jon Hospice,CIDRZ,BOTH,1,2,Lusaka,Lusaka,Lusaka,ZMB,-15.408193,28.287167,,2011-10-01,,,
SA,KABWATA,Kabwata,CIDRZ,BOTH,1,1,Lusaka,Lusaka,Lusaka,ZMB,-15.4317253,28.3008964,,2011-10-01,,,
SA,KABWE GENERAL HOSPITAL,Kabwe General Hospital,CIDRZ,BOTH,,,Kabwe,Kabwe,Central,ZMB,-14.44718,28.446529,,2011-10-01,,,
SA,KABWE ZAF,KABWE ZAF,CIDRZ,BOTH,,,Kabwe,Kabwe,Central,ZMB,-14.44718,28.446529,,2011-10-01,,,
SA,KAFUE DISTRICT HOSPITAL,Kafue District Hospital,CIDRZ,BOTH,4,2,Kafue,Kafue,Lusaka,ZMB,-15.77758,28.181499,,2011-10-01,,,
SA,KAFUE ESTATE,KAFUE ESTATE,CIDRZ,BOTH,4,1,Kafue,Kafue,Lusaka,ZMB,-15.77758,28.181499,,2011-10-01,,,
SA,KALABO DISTRICT HOSPITAL,Kalabo District Hospital,CIDRZ,BOTH,4,2,Kalabo,Kalabo,Western,ZMB,-14.9931607,22.6779684,,2011-10-01,,,
SA,KALINGALINGA,Kalingalinga,CIDRZ,BOTH,1,1,Lusaka,Lusaka,Lusaka,ZMB,-15.4037811,28.3301226,,2011-10-01,,,
SA,KALOMO DISTRICT HOSPITAL,Kalomo District Hospital,CIDRZ,BOTH,4,2,Kalomo,Kalomo,Southern,ZMB,-17.035101,26.48501,,2011-10-01,,,
SA,KALULUSHI MINE HOSPITAL,Kalulushi Mine Hospital,CIDRZ,BOTH,,,Kalulushi,Kitwe,Copperbelt,ZMB,-12.8426423,28.0947106,,2011-10-01,,,
SA,KAMWALA,Kamwala,CIDRZ,BOTH,1,1,Lusaka,Lusaka,Lusaka,ZMB,-15.4522605,28.2965121,,2011-10-01,,,
SA,KANYAMA,Kanyama,CIDRZ,BOTH,1,1,Lusaka,Lusaka,Lusaka,ZMB,-15.4522605,28.2965121,,2011-10-01,,,
SA,KAOMA DISTRICT HOSPITAL,Kaoma District Hospital,CIDRZ,BOTH,4,2,Kaoma,Kaoma,Western,ZMB,-14.8119398,24.7973983,,2011-10-01,,,
SA,KAPATA HOSPITAL HAHC,Kapata Hospital HAHC,CIDRZ,BOTH,4,1,,Chipata,Eastern,ZMB,-13.63237,32.64547,,2011-10-01,,,
SA,KARA COUNSELING,KARA Counseling,CIDRZ,BOTH,1,1,Lusaka,Lusaka,Lusaka,ZMB,-15.408193,28.287167,,2011-10-01,,,
SA,KASAMA GENERAL HOSPITAL,Kasama General Hospital,CIDRZ,BOTH,,,Kasama,Kasama,Northern,ZMB,-10.2083999,31.182529,,2011-10-01,,,
SA,KASANDA,Kasanda,CIDRZ,BOTH,,,,Kabwe,Central,ZMB,-14.44718,28.446529,,2011-10-01,,,
SA,KASISI,Kasisi,CIDRZ,BOTH,4,1,Chongwe,Kafue,Lusaka,ZMB,-15.332826,28.678979,,2011-10-01,,,
SA,KAWAMA HAHC - KAPIRIMPOSHI,KAWAMA HAHC - Kapirimposhi,CIDRZ,BOTH,,,,Kapiri Mposhi,Central,ZMB,-13.97293,28.66991,,2011-10-01,,,
SA,KEEMBA,Keemba,CIDRZ,BOTH,4,1,,Monze,Southern,ZMB,-16.281309,27.48576,,2011-10-01,,,
SA,KITWE CENTRAL HOSPITAL,Kitwe Central Hospital,CIDRZ,BOTH,,,,Kitwe,Copperbelt,ZMB,-12.7972892,28.2109946,,2011-10-01,,,
SA,KITWE ZNS,Kitwe ZNS Camp Hospital,CIDRZ,BOTH,,,,Kitwe,Copperbelt,ZMB,-12.7972892,28.2109946,,2011-10-01,,,
SA,LEWANIKA GENERAL HOSPITAL,Lewanika General Hospital,CIDRZ,BOTH,4,3,,Mongu,Western,ZMB,-15.27749,23.131861,,2011-10-01,,,
SA,Lighthouse KCH,Lighthouse KCH,LIGHTHOUSE,BOTH,1,,Lilongwe,Lilongwe,Central Region,MWI,-13.9764643,33.7859892,,2011-02-07,,,
SA,LIMULUNGA STAGE II,Limulunga Stage II,CIDRZ,BOTH,4,1,Limulunga,Mongu,Western,ZMB,-15.1236111,23.15,,2011-10-01,,,
SA,LITETA HOSPITAL,Liteta Hospital,CIDRZ,BOTH,,,Liteta,Chibombo,Central,ZMB,-14.78244,28.053961,,2011-10-01,,,
SA,LIVINGSTONE HOSPITAL,Livingstone Hospital,CIDRZ,BOTH,4,3,Livingstone,Livingstone,Southern,ZMB,-17.8418736,25.8540248,,2011-10-01,,,
SA,LUAMPA MISSION HOSPITAL HAHC,Luampa Mission Hospital HAHC,CIDRZ,BOTH,,,Luampa,Kaoma,Western,ZMB,-15.0632854,24.4076771,,2011-10-01,,,
SA,LUANGWA,Luangwa,CIDRZ,BOTH,,,,Kitwe,Copperbelt,ZMB,-12.80383,28.21314,,2011-10-01,,,
SA,LUANGWA BOMA,Luangwa Boma,CIDRZ,BOTH,4,1,Luangwa,Luangwa,Lusaka,ZMB,-15.6264925,30.4040725,,2011-10-01,,,
SA,LUENA BARRACKS,Luena Barracks Camp Hospital,CIDRZ,BOTH,,,,Kaoma,Western,ZMB,-14.8119398,24.7973983,,2011-10-01,,,
SA,LUKULU DISTRICT HOSPITAL,Lukulu District Hospital,CIDRZ,BOTH,4,2,Lukulu,Lukulu,Western,ZMB,-14.4076036,23.2587992,,2011-10-01,,,
SA,LUNDAZI DISTRICT HOSPITAL,Lundazi District Hospital,CIDRZ,BOTH,4,2,Lundazi,Lundazi,Eastern,ZMB,-12.29508,33.169941,,2011-10-01,,,
SA,LUSAKA PRISONS,LUSAKA PRISONS,CIDRZ,BOTH,1,2,Lusaka,Lusaka,Lusaka,ZMB,-15.4318225,28.3092081,,2011-10-01,,,
SA,LUSAKA RAILWAY,Lusaka Railway,CIDRZ,BOTH,1,1,Lusaka,Lusaka,Lusaka,ZMB,-15.4199545,28.2839064,,2011-10-01,,,
SA,LWIIMBA,Lwiimba,CIDRZ,BOTH,4,1,Chongwe,Kafue,Lusaka,ZMB,-15.332826,28.678979,,2011-10-01,,,
SA,MAGOYE,Magoye,CIDRZ,BOTH,4,1,Magoye,Mazabuka,Southern,ZMB,-16.0000906,27.6068103,,2011-10-01,,,
SA,MAINA SOKO HOSPITAL,Maina Soko Military Hospital,CIDRZ,BOTH,1,1,Lusaka,Lusaka,Lusaka,ZMB,-15.43615,28.3356287,,2011-10-01,,,
SA,MAKENI,Makeni,CIDRZ,BOTH,1,1,Lusaka,Lusaka,Lusaka,ZMB,-15.4540887,28.2530165,,2011-10-01,,,
SA,MANUNGU,Manungu,CIDRZ,BOTH,4,,,Monze,Southern,ZMB,-16.281309,27.48576,,2011-10-01,,,
SA,MARAMBA,Maramba,CIDRZ,BOTH,1,2,Livingstone,Livingstone,Southern,ZMB,-17.8477041,25.8684422,,2011-10-01,,,
SA,MASAITI BOMA,MASAITI BOMA,CIDRZ,BOTH,,,,,,ZMB,,,,2011-10-01,,,
SA,Masiphumelele,Masiphumelele,Masiphumelele,ADULT,1,1,Cape Town,,Western Cape,ZAF,-34.1294,18.3794,,2007-11-02,,,
SA,MATERO MAIN,Matero Main,CIDRZ,BOTH,1,1,Lusaka,Lusaka,Lusaka,ZMB,-15.3773823,28.2614332,,2011-10-01,,,
SA,MATERO REFERENCE,Matero Reference,CIDRZ,BOTH,1,1,Lusaka,Lusaka,Lusaka,ZMB,-15.3773823,28.2614332,,2011-10-01,,,
SA,MAZABUKA HOSPITAL,Mazabuka Hospital,CIDRZ,BOTH,4,2,Mazabuka,Mazabuka,Southern,ZMB,-15.8552297,27.7340305,,2011-10-01,,,
SA,MBAYAMUSUMA,Mbayamusuma,CIDRZ,BOTH,4,1,,Mazabuka,Southern,ZMB,-15.8673,27.76123,,2011-10-01,,,
SA,McCord,McCord,Mccord,BOTH,1,2,Durban,,Kwa-Zulu Natal,ZAF,-29.8382,30.9967,,2012-08-14,,,
SA,Michael M,Michael M,Khayelitsha,BOTH,1,1,Cape Town,,Western Cape,ZAF,-34.0523,18.6667,,2011-08-04,,,
SA,MIKANGO,Mikango Barracks,CIDRZ,BOTH,,,,Chongwe,Lusaka,ZMB,-15.5100066,28.6060578,,2011-10-01,,,
SA,MONZE URBAN CLINIC,Monze Urban Clinic,CIDRZ,BOTH,4,1,Monze,Monze,Southern,ZMB,-16.281309,27.48576,,2011-10-01,,,
SA,MPC,MPC,LIGHTHOUSE,BOTH,1,,Lilongwe,Lilongwe,Central Region,MWI,-13.9764643,33.7859892,,2011-02-07,,,
SA,MTENDERE,Mtendere,CIDRZ,BOTH,1,1,Lusaka,Lusaka,Lusaka,ZMB,-15.3998176,28.3520865,,2011-10-01,,,
SA,MTETEZI ZNS,ZNS Mtetezi Camp Clinic,CIDRZ,BOTH,,,,Katete,Eastern ,ZMB,-14.0584127,32.043969,,2011-10-01,,,
SA,MUFUMBWE HOSPITAL,Mufumbwe Hospital,CIDRZ,BOTH,,,Mufumbwe,Mufumbwe,Northwestern,ZMB,-13.683333,24.8,,2011-10-01,,,
SA,MUMBWA DISTRICT HOSPITAL,Mumbwa District Hospital,CIDRZ,BOTH,,,Mumbwaÿ,Mumbwaÿ,Central,ZMB,-14.9848228,27.0617553,,2011-10-01,,,
SA,MUMBWA ZAF,MUMBWA ZAF,CIDRZ,BOTH,,,,Mumbwaÿ,Central,ZMB,-14.9848228,27.0617553,,2011-10-01,,,
SA,MUSISO,MUSISO,SMARTZIM,BOTH,4,2,Musiso,Zakaÿ,Masvingo,ZWE,-20.4687119,31.4507031,,2013-07-31,,,
SA,MWASE LUNDAZI,Mwase Lundazi,CIDRZ,BOTH,4,1,Mwase Lundazi,Lundazi,Eastern,ZMB,-12.3984657,33.3794717,,2011-10-01,,,
SA,MWEMBESHI - KAFUE,Mwembeshi - KAFUE,CIDRZ,BOTH,4,1,Mwembeshi Prison,Kafue,Lusaka,ZMB,-15.34513,27.940531,,2011-10-01,,,
SA,MWEMBESHI - MUMBWA,Mwembeshi - MUMBWA,CIDRZ,BOTH,4,2,Mwembeshi Prison,Mumbwaÿ,Central,ZMB,-14.9848228,27.0617553,,2011-10-01,,,
SA,NAKAMBALA SUGAR ESTATES,Nakambala Sugar Estates,CIDRZ,BOTH,4,1,Nakambala,Mazabuka,Southern,ZMB,-15.82325,27.77548,,2011-10-01,,,
SA,NAKAMBALA URBAN,Nakambala Urban,CIDRZ,BOTH,4,,Nakambala,Mazabuka,Southern,ZMB,-15.82325,27.77548,,2011-10-01,,,
SA,NAMWALA HOSPITAL,Namwala Hospital,CIDRZ,BOTH,,,Namwala,Namwala,Southern,ZMB,-15.7501897,26.4443922,,2011-10-01,,,
SA,NANGA,NANGA,CIDRZ,BOTH,,,Nanga,Mazabuka,Southern,ZMB,-15.7863889,27.9133333,,2011-10-01,,,
SA,NANGONGWE OPD - MATERNITY,Nangongwe OPD/Maternity,CIDRZ,BOTH,4,1,Kafue,Lusaka,Lusaka,ZMB,-15.77758,28.181499,,2011-10-01,,,
SA,NEWLANDS,NEWLANDS,NEWLANDS,BOTH,1,1,Harare,Harare,Harare,ZWE,-17.8108357,31.0851019,,2010-08-18,,,
SA,NGOMBE,Ng'ombe,CIDRZ,BOTH,1,1,Lusaka,Lusaka,Lusaka,ZMB,-15.3632232,28.325739,,2011-10-01,,,
SA,Nolungile (Site C),Nolungile (Site C),Khayelitsha,BOTH,1,1,Cape Town,,Western Cape,ZAF,-34.0403,18.6778,,2011-08-04,,,
SA,NSADZU,Nsadzu,CIDRZ,BOTH,4,1,Chadiza,Chadiza,Eastern,ZMB,-14.06351,32.439091,,2011-10-01,,,
SA,NYAWA,NYAWA,CIDRZ,BOTH,4,,Zimba,Kazungula,Southern,ZMB,-17.3166667,26.2,,2011-10-01,,,
SA,NYIMBA HOSPITAL,Nyimba Hospital,CIDRZ,BOTH,4,2,Nyimba,Petauke,Eastern,ZMB,-14.5559677,30.8143222,,2011-10-01,,,
SA,OUR LADYS HOSPICE,Our Lady's Hospice,CIDRZ,BOTH,1,1,Lusaka,Lusaka,Lusaka,ZMB,-15.4037811,28.3301226,,2011-10-01,,,
SA,PEMBA MAIN,Pemba Main,CIDRZ,BOTH,4,1,Pemba,Choma,Southern,ZMB,-16.52658,27.36428,,2011-10-01,,,
SA,PETAUKE DISTRICT HOSPITAL,Petauke Disrict Hospital,CIDRZ,BOTH,4,2,Petauke,Nyimba,Eastern,ZMB,-14.2485463,31.3319242,,2011-10-01,,,
SA,QECH,QECH,QUEEN_ELISABETH,BOTH,,,Blantyre,Blantyre,Southern Region,MWI,-15.802993,35.0216061,,2013-05-27,,,
SA,Rahima Moosa,Rahima Moosa,Rahimamoosa,PED,1,3,Johannesburg,,Gauteng,ZAF,-26.1887,27.9737,,2011-08-25,,,
SA,Red Cross Childrens Hospital,Red Cross Childrens Hospital,Redcross,PED,1,3,Cape Town,,Western Cape,ZAF,-33.9629,18.5148,,2012-01-11,,,
SA,ROAN ANTELOPE HOSPITAL,Roan Antelope Hospital,CIDRZ,BOTH,,,Luanshya,Luanshya,Copperbelt,ZMB,-13.127,28.381769,,2011-10-01,,,
SA,RONALD ROSS GENERAL HOSPITAL,Ronald Ross General Hospital,CIDRZ,BOTH,,,Mufulira,Mufulira,Copperbelt,ZMB,-12.5465917,28.2409032,,2011-10-01,,,
SA,SEBOCHE,SEBOCHE,SMARTLES,BOTH,,,,Seboche,Butha-Buthe,LSO,-28.693611,28.411666,,2013-12-31,,,
SA,SEFULA STAGE II,Sefula Stage II,CIDRZ,BOTH,4,1,Mongu,Mongu,Western,ZMB,-15.27749,23.131861,,2011-10-01,,,
SA,SENANGA DISTRICT HOSPITAL,Senanga District Hospital,CIDRZ,BOTH,4,2,Senanga,Senanga,Western,ZMB,-16.1178235,23.2960171,,2011-10-01,,,
SA,SHAMPANDE,Shampande,CIDRZ,BOTH,4,2,,Choma,Southern,ZMB,-16.816521,26.976431,,2011-10-01,,,
SA,SHANGOMBO HC,Shangombo HC,CIDRZ,BOTH,4,2,Shangombo,Shangombo,Western,ZMB,-16.3234581,22.104272,,2011-10-01,,,
SA,SILVEIRA,SILVEIRA,SMARTZIM,BOTH,4,2,,Masvingo,Masvingo,ZWE,-20.0744444,30.8327778,,2013-07-31,,,
SA,SILVEIRA HC,SILVEIRA HC,SMARTZIM,BOTH,4,2,,Masvingo,Masvingo,ZWE,-20.0744444,30.8327778,,2013-07-31,,,
SA,SINDA,Sinda,CIDRZ,BOTH,4,2,Petauke,Nyimba,Eastern,ZMB,-14.2412572,31.3198491,,2011-10-01,,,
SA,SIOMA,Sioma,CIDRZ,BOTH,4,1,Sioma,Shangombo,Western,ZMB,-16.6047938,23.5058858,,2011-10-01,,,
SA,SOLWEZI GENERAL HOSPITAL,Solwezi General Hospital,CIDRZ,BOTH,,,Solwezi,Solwezi,Northwestern,ZMB,-12.18041,26.4006,,2011-10-01,,,
SA,SOS CHILDRENS VILLAGE CLINIC,SOS Childrens Village Clinic,CIDRZ,BOTH,1,2,Lusaka,Lusaka,Lusaka,ZMB,-15.408193,28.287167,,2011-10-01,,,
SA,STATE LODGE,STATE LODGE,CIDRZ,BOTH,1,1,Lusaka,Lusaka,Lusaka,ZMB,-15.408193,28.287167,,2011-10-01,,,
SA,THABA TSEKA,THABA TSEKA,SMARTLES,BOTH,4,,Thaba-Tseka,,Thaba-Tseka,LSO,-29.5333333,28.6,,2013-07-31,,,
SA,THABA TSEKA HC,THABA TSEKA HC,SMARTLES,BOTH,4,,Thaba-Tseka,,Thaba-Tseka,LSO,-29.5333333,28.6,,2013-07-31,,,
SA,Themba Lethu,Themba Lethu,Thembalethu,ADULT,1,3,Johannesburg,City of Johannesburg,Gauteng,ZAF,-26.1835,27.9895,2001-04-01,2009-12-31,,,
SA,Tygerberg Hospital,Tygerberg Hospital,Tygerberg,BOTH,1,3,Cape Town,City of Cape Town Metropolitan,Western Cape,ZAF,-33.9127,18.6154,2001-01-05,2010-09-01,,,
SA,Ubuntu (Site B),Ubuntu (Site B),Khayelitsha,BOTH,1,1,Cape Town,,Western Cape,ZAF,-34.0345,18.667,,2011-08-04,,,
SA,UNIVERSITY OF ZAMBIA,University of Zambia,CIDRZ,BOTH,1,1,Lusaka,Lusaka,Lusaka,ZMB,-15.39181,28.32739,,2011-10-01,,,
SA,UNIVERSITY TEACHING HOSPITAL,University Teaching Hospital,CIDRZ,BOTH,1,3,Lusaka,Lusaka,Lusaka,ZMB,-15.4317999,28.3147795,,2011-10-01,,,
SA,YETA DISTRICT HOSPITAL,Yeta District Hospital,CIDRZ,BOTH,4,2,Sesheke,Sesheke,Western,ZMB,-17.480009,24.30632,,2011-10-01,,,
SA,ZAF LIVINGSTONE SICK QUARTERS,ZAF LIVINGSTONE SICK QUARTERS,CIDRZ,BOTH,,,Livingstone,Livingstone,Southern,ZMB,-17.857719,25.85845,,2011-10-01,,,
SA,ZAKA HC,ZAKA HC,SMARTZIM,BOTH,4,2,,Zaka,Masvingo,ZWE,-20.4036628,31.4484747,,2013-07-31,,,
WA,BANDIM,Bandim Health Project,BANDIM,ADULT,9,9,Bissau,,,GNB,11.866667,-15.6,,2012-01-19,,,
WA,BOBO,Centre Hospitalier Universitaire de Sourô Sanou,BOBO,ADULT,9,3,Bobo-Dioulasso,,,BFA,11.1702692,-4.3016251,,2012-08-10,,,
WA,CePReF-Adult,"ACONDA - Centre de Prise en Charge, de Recherche et de Formation (CePReF) - Adult",CePReF,ADULT,1,1,Abidjan,Yopougon,,CIV,5.334722,-4.07,,2011-12-30,,,
WA,CePReF-Pediatric,"ACONDA - Centre de Prise en Charge, de Recherche et de Formation (CePReF) - Pediatric",CePReF,PED,1,1,Abidjan,Yopougon,,CIV,5.334722,-4.07,,2011-12-30,,,
WA,CHUC,"Centre Hospitalier Universitaire de Cocody, Service de pédiatrie",CHUC,PED,2,3,Abidjan,Cocody,,CIV,5.3442902,-3.9940146,,2012-07-10,,,
WA,CHUCDG,Centre Hospitalier Universitaire Pédiatrique Charles de Gaulle,CHUCDG,PED,9,3,Ouagadougou,,,BFA,12.3742923,-1.4715684,,2012-07-29,,,
WA,CHUY,"Centre Hospitalier Universitaire de Yopougon, Service de pédiatrie",CHUY,PED,2,3,Abidjan,Yopougon,,CIV,5.3587654,-4.0893521,,2012-07-11,,,
WA,CHUYO,Centre Hospitalier Universitaire de Yalgado,CHUYO,ADULT,1,3,Ouagadougou,,,BFA,12.3844802,-1.5069455,,2012-10-29,,,
WA,CIRBA-Adult,Centre Intégré de Recherche Bioclinique d'Abidjan (CIRBA) - Adult,CIRBA,ADULT,2,2,Abidjan,Treichville,,CIV,5.2922728,-3.9989966,,2012-06-29,,,
WA,CIRBA-Pediatric,Centre Intégré de Recherche Bioclinique d'Abidjan (CIRBA) - Pediatric,CIRBA,PED,2,2,Abidjan,Treichville,,CIV,5.2922728,-3.9989966,,2012-06-29,,,
WA,CNHU-Adult,Centre National Hospitalier Universitaire Hubert K. Maga  - Adult,CNHU,ADULT,2,3,Cotonou,,,BEN,6.3549202,2.4103733,,2012-07-16,,,
WA,CNHU-Pediatric,Centre National Hospitalier Universitaire Hubert K. Maga - Pediatric,CNHU,PED,2,3,Cotonou,,,BEN,6.3549202,2.4103733,,2012-07-16,,,
WA,CNTS,Centre National de Transfusion Sanguine (CNTS)/ CMSDS,CNTS,ADULT,2,1,Abidjan,Treichville,,CIV,5.2910699,-3.9960204,,2012-05-31,,,
WA,GABRIEL-Adult,Centre Hospitalier Universitaire Gabriel Touré - Adult,GABRIEL,ADULT,2,3,Bamako,,,MLI,12.6511974,-7.9957338,,2012-10-18,,,
WA,GABRIEL-Pediatric,Centre Hospitalier Universitaire Gabriel Touré - Pediatric,GABRIEL,PED,2,3,Bamako,,,MLI,12.6511974,-7.9957338,,2012-10-18,,,
WA,KBTH,U.G.M.S. Korle Bu,KBTH,PED,1,3,Accra,,,GHA,5.5374063,-0.2273975,,2012-07-14,,,
WA,MACENTA,Centre Médical de Macenta,MACENTA,BOTH,9,9,Macenta,,,GIN,8.541919,-9.471172,,,,,
WA,MTCTP,ACONDA - Mother To Child Transmission Plus (MTCT+),MTCTP,BOTH,2,2,Abidjan,Cocody,,CIV,5.35,-3.983333,,2011-09-07,,,
WA,POINTG,Centre Hospitalier Universitaire du Point G,POINTG,ADULT,2,3,Bamako,,,MLI,12.6694322,-7.9933488,,2012-07-30,,,
WA,ROYER,Hôpital d'Enfants Albert Royer,ROYER,PED,9,9,Dakar,,,SEN,14.6928979,-17.4662073,,2012-08-07,,,
WA,SMIT,"Centre Hospitalier Universitaire de Treichville, Service des Maladies Infectieuses et Tropicales (SMIT)",SMIT,ADULT,1,3,Abidjan,Treichville,,CIV,5.2935409,-4.0038984,,2011-10-25,,,
WA,SMITD,Service des Maladies Infectieuses du Centre Hospitalier National Universitaire de Fann,SMITD,ADULT,1,3,Dakar,,,SEN,14.6928979,-17.4662073,,2011-10-19,,,
WA,TOKOIN-Adult,Centre Hospitalier Universitaire de Lomé Tokoin/Sylvanus Olympio - Adult,TOKOIN,ADULT,1,3,Lom,,,TGO,6.1420586,1.2109306,,2012-09-06,,,
WA,TOKOIN-Pediatric,Centre Hospitalier Universitaire de Lomé Tokoin/Sylvanus Olympio - Pediatric,TOKOIN,PED,1,3,Lom,,,TGO,6.1420586,1.2109306,,2012-09-06,,,
WA,UATH,University of Abuja Teaching Hospital,UATH,ADULT,2,3,Abuja,,,NGA,8.9504163,7.0626167,,2012-07-11,,,
WA,UBTH,University of Benin Teaching Hospital,UBTH,ADULT,2,3,Benin City,,,NGA,6.391354,5.6134679,,2011-04-30,,,
WA,USAC,"Hôpital de jour du Centre Hospitalier Universitaire de Treichville, Unité de Soins Ambulatoires et de Conseil (USAC)",USAC,ADULT,1,3,Abidjan,Treichville,,CIV,5.2935409,-4.0038984,,2011-10-06,,,
EA,EA94,MBITA DISTRICT HOSPITAL,FACES,BOTH,1,2,MBITA,HOMA BAY,NYANZA,KEN,-0.42016,34.207,2007-07-23,2014-12-31,2007-07-23,,
AP,538,Sanglah hospital,TApHOD,PED,4,3,Bali,Two,One ,IDN,-8.1095,115.0928,2006-08-25,2014-10-30,2010-02-27,,
ZZ,zz-center,zz-name,zz-program,zz-adultped,999,999,zz-city,zz-district,zz-province,zz-country,1000,1000,2016-01-40,216-01-01,2010-16-03,,
ZZ,zz-center,zz-name,zz-program,zz-adultped,999,999,zz-city,zz-district,zz-province,zz-country,-1000,-1000,2016-01-40,216-01-01,2010-16-03,,
ZZ,zz-center,zz-name,zz-program,zz-adultped,x,x,zz-city,zz-district,zz-province,zz-country,x,x,x,x,x,x,
,zz-center,zz-name,zz-program,zz-adultped,x,x,zz-city,zz-district,zz-province,zz-country,x,x,x,x,x,x,
